ScaleRank,LabelRank,FeatureCla,SOVEREIGNT,SOV_A3,ADM0_DIF,LEVEL,TYPE,ADMIN,ADM0_A3,GEOU_DIF,GEOUNIT,GU_A3,SU_DIF,SUBUNIT,SU_A3,NAME,ABBREV,POSTAL,NAME_FORMA,TERR_,NAME_SORT,MAP_COLOR,POP_EST,GDP_MD_EST,FIPS_10_,ISO_A2,ISO_A3,ISO_N3,ISO3,LON,LAT,ISO3.1,ADMIN.1,REGION,continent,GEO3major,GEO3,IMAGE24,GLOCAF,Stern,SRESmajor,SRES,GBD,AVOIDnumeric,AVOIDname,LDC,SID,LLDC
1,1,Admin-0 countries,Afghanistan,AFG,0,2,Sovereign country,Afghanistan,AFG,0,Afghanistan,AFG,0,Afghanistan,AFG,Afghanistan,Afg.,AF,Islamic State of Afghanistan,NA,Afghanistan,7,28400000,22270,0,AF,AFG,4,AFG,66.08669022192832,33.85639928169075,AFG,Afghanistan,Asia,Eurasia,Asia and the Pacific,South Asia,India+,Rest of South Asia,Central Asia,ASIA,South Asia (SAS),"Asia, South",21,Rest of Central Asia,LDC,other,LLDC
1,1,Admin-0 countries,Angola,AGO,0,2,Sovereign country,Angola,AGO,0,Angola,AGO,0,Angola,AGO,Angola,Ang.,AO,Republic of Angola,NA,Angola,1,12799293,110300,0,AO,AGO,24,AGO,17.502911921587078,-12.291553438705746,AGO,Angola,Africa,Africa,Africa,Southern Africa,Southern Africa,Sub-Sarahan Africa,South+E Africa,ALM,Sub-Saharan Africa (AFR),"Sub-Saharan Africa, Central",24,Southern and East Africa,LDC,other,other
1,1,Admin-0 countries,Albania,ALB,0,2,Sovereign country,Albania,ALB,0,Albania,ALB,0,Albania,ALB,Albania,Alb.,AL,Republic of Albania,NA,Albania,6,3639453,21810,0,AL,ALB,8,ALB,20.03242643144321,41.14135330604878,ALB,Albania,Europe,Eurasia,Europe,Central Europe,Central Europe,Europe,Europe,REF,Central and Eastern Europe (EEU),"Europe, Central",25,Europe,other,other,other
1,1,Admin-0 countries,United Arab Emirates,ARE,0,2,Sovereign country,United Arab Emirates,ARE,0,United Arab Emirates,ARE,0,United Arab Emirates,ARE,United Arab Emirates,U.A.E.,AE,NA,NA,United Arab Emirates,3,4798491,184300,0,AE,ARE,784,ARE,54.206714761596324,23.868633653347615,ARE,United Arab Emirates,Asia,Eurasia,West Asia,Arabian Peninsula,Middle East,Middle East,West Asia,ALM,Middle East and North Africa (MEA),North Africa/Middle East,30,Middle East,other,other,other
1,1,Admin-0 countries,Argentina,ARG,0,2,Sovereign country,Argentina,ARG,0,Argentina,ARG,0,Argentina,ARG,Argentina,Arg.,AR,Argentine Republic,NA,Argentina,13,40913584,573900,0,AR,ARG,32,ARG,-65.14954339092097,-35.22017199593567,ARG,Argentina,South America,South America,Latin America and the Caribbean,South America,Rest South America,Rest of South Am,South America,ALM,Latin America and the Caribbean (LAM),"Latin America, Southern",26,South America,other,other,other
1,1,Admin-0 countries,Armenia,ARM,0,2,Sovereign country,Armenia,ARM,0,Armenia,ARM,0,Armenia,ARM,Armenia,Arm.,ARM,Republic of Armenia,NA,Armenia,10,2967004,18770,0,AM,ARM,51,ARM,45.000290011014776,40.216607612301424,ARM,Armenia,Europe,Eurasia,Europe,Eastern Europe,Russia+,FSU,Europe,REF,Newly Independent States of FSU (FSU),"Asia, Central",25,Europe,other,other,LLDC
1,1,Admin-0 countries,Antarctica,ATA,0,2,Indeterminate,Antarctica,ATA,0,Antarctica,ATA,0,Antarctica,ATA,Antarctica,Ant.,AQ,NA,Multiple claims held in abeyance,Antarctica,0,4000,0,0,AQ,ATA,10,ATA,21.284392937991658,-80.52278219648278,ATA,Antarctica,Antarctica,Antarctica,Polar,Antarctic,Antarctica,NA,NA,NA,NA,NA,NA,NA,other,other,other
3,3,Admin-0 countries,France,FR1,1,2,Dependency,French Southern and Antarctic Lands,ATF,0,French Southern and Antarctic Lands,ATF,0,French Southern and Antarctic Lands,ATF,Fr. S. and Antarctic Lands,Fr. S.A.L.,TF,Territory of the French Southern and Antarctic Lands,Fr.,French Southern and Antarctic Lands,11,140,0,0,TF,ATF,260,ATF,69.53158047042369,-49.30645491167198,ATF,French Southern and Antarctic Lands,NA,NA,NA,NA,NA,NA,NA,NA,NA,NA,NA,NA,NA,NA,NA
1,1,Admin-0 countries,Australia,AU1,0,2,Country,Australia,AUS,0,Australia,AUS,0,Australia,AUS,Australia,Auz.,AU,Commonwealth of Australia,NA,Australia,7,21262641,800200,0,AU,AUS,36,AUS,134.37607857361803,-25.560764062239507,AUS,Australia,Australia,Australia,Asia and the Pacific,Australia and New Zealand,Oceania,Oceania,Australasia,OECD90,Pacific OECD (PAO),Australasia,10,Australia,other,other,other
1,1,Admin-0 countries,Austria,AUT,0,2,Sovereign country,Austria,AUT,0,Austria,AUT,0,Austria,AUT,Austria,Aust.,A,Republic of Austria,NA,Austria,4,8210281,329500,0,AT,AUT,40,AUT,14.07615888433708,47.613948792746285,AUT,Austria,Europe,Eurasia,Europe,Western Europe,Western Europe,Europe,Europe,OECD90,Western Europe (WEU),"Europe, Western",25,Europe,other,other,other
1,1,Admin-0 countries,Azerbaijan,AZE,0,2,Sovereign country,Azerbaijan,AZE,0,Azerbaijan,AZE,0,Azerbaijan,AZE,Azerbaijan,Aze.,AZ,Republic of Azerbaijan,NA,Azerbaijan,8,8238672,77610,0,AZ,AZE,31,AZE,47.68058267751467,40.28053365368409,AZE,Azerbaijan,Europe,Eurasia,Europe,Eastern Europe,Russia+,FSU,Europe,REF,Newly Independent States of FSU (FSU),"Asia, Central",25,Europe,other,other,LLDC
1,1,Admin-0 countries,Burundi,BDI,0,2,Sovereign country,Burundi,BDI,0,Burundi,BDI,0,Burundi,BDI,Burundi,Bur.,BI,Republic of Burundi,NA,Burundi,8,8988091,3102,0,BI,BDI,108,BDI,29.91390089307105,-3.3773918124285838,BDI,Burundi,Africa,Africa,Africa,Eastern Africa,Eastern Africa,Sub-Sarahan Africa,South+E Africa,ALM,Sub-Saharan Africa (AFR),"Sub-Saharan Africa, East",24,Southern and East Africa,LDC,other,LLDC
1,1,Admin-0 countries,Belgium,BEL,0,2,Sovereign country,Belgium,BEL,0,Belgium,BEL,0,Belgium,BEL,Belgium,Belg.,B,Kingdom of Belgium,NA,Belgium,8,10414336,389300,0,BE,BEL,56,BEL,4.580831590651701,50.65244260645211,BEL,Belgium,Europe,Eurasia,Europe,Western Europe,Western Europe,Europe,Europe,OECD90,Western Europe (WEU),"Europe, Western",25,Europe,other,other,other
1,1,Admin-0 countries,Benin,BEN,0,2,Sovereign country,Benin,BEN,0,Benin,BEN,0,Benin,BEN,Benin,Benin,BJ,Republic of Benin,NA,Benin,12,8791832,12830,0,BJ,BEN,204,BEN,2.33737755349616,9.647430780663715,BEN,Benin,Africa,Africa,Africa,Western Africa,Western Africa,Sub-Sarahan Africa,West Africa,ALM,Sub-Saharan Africa (AFR),"Sub-Saharan Africa, West",23,West Africa,LDC,other,other
1,1,Admin-0 countries,Burkina Faso,BFA,0,2,Sovereign country,Burkina Faso,BFA,0,Burkina Faso,BFA,0,Burkina Faso,BFA,Burkina Faso,B.F.,BF,NA,NA,Burkina Faso,11,15746232,17820,0,BF,BFA,854,BFA,-1.7765374520559403,12.311650494136716,BFA,Burkina Faso,Africa,Africa,Africa,Western Africa,Western Africa,Sub-Sarahan Africa,West Africa,ALM,Sub-Saharan Africa (AFR),"Sub-Saharan Africa, West",23,West Africa,LDC,other,LLDC
1,1,Admin-0 countries,Bangladesh,BGD,0,2,Sovereign country,Bangladesh,BGD,0,Bangladesh,BGD,0,Bangladesh,BGD,Bangladesh,Bang.,BD,People's Republic of Bangladesh,NA,Bangladesh,7,156050883,224000,0,BD,BGD,50,BGD,90.26792827719598,23.839461795344057,BGD,Bangladesh,Asia,Eurasia,Asia and the Pacific,South Asia,India+,Rest of South Asia,South Asia,ASIA,South Asia (SAS),"Asia, South",19,Rest of South Asia,LDC,other,other
1,1,Admin-0 countries,Bulgaria,BGR,0,2,Sovereign country,Bulgaria,BGR,0,Bulgaria,BGR,0,Bulgaria,BGR,Bulgaria,Bulg.,BG,NA,NA,Bulgaria,8,7204687,93750,0,BG,BGR,100,BGR,25.195110953277112,42.75311876202168,BGR,Bulgaria,Europe,Eurasia,Europe,Central Europe,Central Europe,Europe,Europe,REF,Central and Eastern Europe (EEU),"Europe, Central",25,Europe,other,other,other
1,1,Admin-0 countries,The Bahamas,BHS,0,2,Sovereign country,The Bahamas,BHS,0,The Bahamas,BHS,0,The Bahamas,BHS,Bahamas,Bhs.,BS,Commonwealth of the Bahamas,NA,"Bahamas, The",5,309156,9093,0,BS,BHS,44,BHS,-77.91580479355534,24.50639967271501,BHS,The Bahamas,South America,South America,Latin America and the Caribbean,Caribbean,Rest Central America,Rest of Central Am,Caribbean,ALM,Latin America and the Caribbean (LAM),Caribbean,28,Caribbean,other,SID,other
1,1,Admin-0 countries,Bosnia and Herzegovina,BIH,0,2,Sovereign country,Bosnia and Herzegovina,BIH,0,Bosnia and Herzegovina,BIH,0,Bosnia and Herzegovina,BIH,Bosnia and Herz.,B.H.,BiH,NA,NA,Bosnia and Herzegovina,2,4613414,29700,0,BA,BIH,70,BIH,17.816883421297987,44.180767841386206,BIH,Bosnia and Herzegovina,Europe,Eurasia,Europe,Central Europe,Central Europe,Europe,Europe,REF,Central and Eastern Europe (EEU),"Europe, Central",25,Europe,other,other,other
1,1,Admin-0 countries,Belarus,BLR,0,2,Sovereign country,Belarus,BLR,0,Belarus,BLR,0,Belarus,BLR,Belarus,Bela.,BY,Republic of Belarus,NA,Belarus,11,9648533,114100,0,BY,BLR,112,BLR,27.981353986903677,53.50634440475128,BLR,Belarus,Europe,Eurasia,Europe,Eastern Europe,Ukraine+,FSU,Europe,REF,Newly Independent States of FSU (FSU),"Europe, Eastern",25,Europe,other,other,other
1,1,Admin-0 countries,Belize,BLZ,0,2,Sovereign country,Belize,BLZ,0,Belize,BLZ,0,Belize,BLZ,Belize,Belize,BZ,NA,NA,Belize,7,307899,2536,0,BZ,BLZ,84,BLZ,-88.70342125299318,17.19708991145155,BLZ,Belize,South America,South America,Latin America and the Caribbean,Meso-America,Rest Central America,Rest of Central Am,Central America,ALM,Latin America and the Caribbean (LAM),Caribbean,27,Central America,other,SID,other
1,1,Admin-0 countries,Bolivia,BOL,0,2,Sovereign country,Bolivia,BOL,0,Bolivia,BOL,0,Bolivia,BOL,Bolivia,Bolivia,BO,Republic of Bolivia,NA,Bolivia,3,9775246,43270,0,BO,BOL,68,BOL,-64.64140560603109,-16.728987015305822,BOL,Bolivia,South America,South America,Latin America and the Caribbean,South America,Rest South America,Rest of South Am,South America,ALM,Latin America and the Caribbean (LAM),"Latin America, Andean",26,South America,other,other,LLDC
1,1,Admin-0 countries,Brazil,BRA,0,2,Sovereign country,Brazil,BRA,0,Brazil,BRA,0,Brazil,BRA,Brazil,Brazil,BR,Federative Republic of Brazil,NA,Brazil,7,198739269,1993000,0,BR,BRA,76,BRA,-53.0543400357671,-10.806773643498918,BRA,Brazil,South America,South America,Latin America and the Caribbean,South America,Brazil,Brazil,South America,ALM,Latin America and the Caribbean (LAM),"Latin America, Tropical",7,Brazil,other,other,other
1,1,Admin-0 countries,Brunei,BRN,0,2,Sovereign country,Brunei,BRN,0,Brunei,BRN,0,Brunei,BRN,Brunei,Brunei,BN,Negara Brunei Darussalam,NA,Brunei,12,388190,20250,0,BN,BRN,96,BRN,114.91510877393951,4.690250542520635,BRN,Brunei,Asia,Eurasia,Asia and the Pacific,Southeast Asia,Southeastern Asia,South East Asia,East Asia,ASIA,Other Pacific Asia (PAS),"Asia Pacific, High Income",20,Rest of East Asia,other,other,other
1,1,Admin-0 countries,Bhutan,BTN,0,2,Sovereign country,Bhutan,BTN,0,Bhutan,BTN,0,Bhutan,BTN,Bhutan,Bhutan,BT,Kingdom of Bhutan,NA,Bhutan,8,691141,3524,0,BT,BTN,64,BTN,90.4724248062037,27.427968649102027,BTN,Bhutan,Asia,Eurasia,Asia and the Pacific,South Asia,India+,Rest of South Asia,South Asia,ASIA,South Asia (SAS),"Asia, South",19,Rest of South Asia,LDC,other,LLDC
1,1,Admin-0 countries,Botswana,BWA,0,2,Sovereign country,Botswana,BWA,0,Botswana,BWA,0,Botswana,BWA,Botswana,Bwa.,BW,Republic of Botswana,NA,Botswana,3,1990876,27060,0,BW,BWA,72,BWA,23.773081465789435,-22.099711378826417,BWA,Botswana,Africa,Africa,Africa,Southern Africa,Southern Africa,Sub-Sarahan Africa,South+E Africa,ALM,Sub-Saharan Africa (AFR),"Sub-Saharan Africa, Southern",24,Southern and East Africa,other,other,LLDC
1,1,Admin-0 countries,Central African Republic,CAF,0,2,Sovereign country,Central African Republic,CAF,0,Central African Republic,CAF,0,Central African Republic,CAF,Central African Rep.,C.A.R.,CF,Central African Republic,NA,Central African Republic,9,4511488,3198,0,CF,CAF,140,CAF,20.37434729124393,6.542778705921303,CAF,Central African Republic,Africa,Africa,Africa,Central Africa,Western Africa,Sub-Sarahan Africa,West Africa,ALM,Sub-Saharan Africa (AFR),"Sub-Saharan Africa, Central",23,West Africa,LDC,other,LLDC
1,1,Admin-0 countries,Canada,CAN,0,2,Sovereign country,Canada,CAN,0,Canada,CAN,0,Canada,CAN,Canada,Can.,CA,NA,NA,Canada,2,33487208,1300000,0,CA,CAN,124,CAN,-101.569822125212,57.74876880357334,CAN,Canada,North America,North America,North America,Canada,Canada,Canada,North America,OECD90,North America (NAM),"North America, High Income",9,Canada,other,other,other
1,1,Admin-0 countries,Switzerland,CHE,0,2,Sovereign country,Switzerland,CHE,0,Switzerland,CHE,0,Switzerland,CHE,Switzerland,Switz.,CH,Swiss Confederation,NA,Switzerland,3,7604467,316700,0,CH,CHE,756,CHE,8.118300613385486,46.79173768366761,CHE,Switzerland,Europe,Eurasia,Europe,Western Europe,Western Europe,Europe,Europe,OECD90,Western Europe (WEU),"Europe, Western",25,Europe,other,other,other
1,1,Admin-0 countries,Chile,CHL,0,2,Sovereign country,Chile,CHL,0,Chile,CHL,0,Chile,CHL,Chile,Chile,CL,Republic of Chile,NA,Chile,9,16601707,244500,0,CL,CHL,152,CHL,-71.6709451193705,-37.341831867857735,CHL,Chile,South America,South America,Latin America and the Caribbean,South America,Rest South America,Rest of South Am,South America,ALM,Latin America and the Caribbean (LAM),"Latin America, Southern",26,South America,other,other,other
1,1,Admin-0 countries,China,CH1,0,2,Country,China,CHN,0,China,CHN,0,China,CHN,China,China,CN,People's Republic of China,NA,China,3,1338612968,7973000,0,CN,CHN,156,CHN,103.86536525665792,36.6094323800447,CHN,China,Asia,Eurasia,Asia and the Pacific,NW Pacific and East Asia,China+,China,East Asia,ASIA,Centrally planned Asia and China (CPA),"Asia, East",1,China,other,other,other
1,1,Admin-0 countries,Ivory Coast,CIV,0,2,Sovereign country,Ivory Coast,CIV,0,Ivory Coast,CIV,0,Ivory Coast,CIV,Ivory Coast,I.C.,CI,Republic of Cote D'Ivoire,NA,Ivory Coast (Ctte d'Ivoire),3,20617068,33850,0,CI,CIV,384,CIV,-5.612043645225222,7.553755007010494,CIV,Ivory Coast,Africa,Africa,Africa,Western Africa,Western Africa,Sub-Sarahan Africa,West Africa,ALM,Sub-Saharan Africa (AFR),"Sub-Saharan Africa, West",23,West Africa,other,other,other
1,1,Admin-0 countries,Cameroon,CMR,0,2,Sovereign country,Cameroon,CMR,0,Cameroon,CMR,0,Cameroon,CMR,Cameroon,Cam.,CM,Republic of Cameroon,NA,Cameroon,3,18879301,42750,0,CM,CMR,120,CMR,12.611552515136585,5.663098130302125,CMR,Cameroon,Africa,Africa,Africa,Central Africa,Western Africa,Sub-Sarahan Africa,West Africa,ALM,Sub-Saharan Africa (AFR),"Sub-Saharan Africa, West",23,West Africa,other,other,other
1,1,Admin-0 countries,Democratic Republic of the Congo,COD,0,2,Sovereign country,Democratic Republic of the Congo,COD,0,Democratic Republic of the Congo,COD,0,Democratic Republic of the Congo,COD,Congo (Kinshasa),D.R.C.,DRC,Democratic Republic of the Congo,NA,Congo (Kinshasa),7,68692542,20640,0,CD,COD,180,COD,23.58295583147909,-2.8502757110956707,COD,Democratic Republic of the Congo,Africa,Africa,Africa,Central Africa,Western Africa,Sub-Sarahan Africa,West Africa,ALM,Sub-Saharan Africa (AFR),"Sub-Saharan Africa, Central",23,West Africa,LDC,other,other
1,1,Admin-0 countries,Republic of the Congo,COG,0,2,Sovereign country,Republic of the Congo,COG,0,Republic of the Congo,COG,0,Republic of the Congo,COG,Congo (Brazzaville),Rep. Congo,CG,Republic of the Congo,NA,Congo (Brazzaville),10,4012809,15350,0,CG,COG,178,COG,15.13446176741353,-0.8378010872252891,COG,Republic of the Congo,Africa,Africa,Africa,Central Africa,Western Africa,Sub-Sarahan Africa,West Africa,ALM,Sub-Saharan Africa (AFR),"Sub-Saharan Africa, Central",23,West Africa,other,other,other
1,1,Admin-0 countries,Colombia,COL,0,2,Sovereign country,Colombia,COL,0,Colombia,COL,0,Colombia,COL,Colombia,Col.,CO,Republic of Colombia,NA,Colombia,1,45644023,395400,0,CO,COL,170,COL,-73.0777320869748,3.9272138627097046,COL,Colombia,South America,South America,Latin America and the Caribbean,South America,Rest South America,Rest of South Am,South America,ALM,Latin America and the Caribbean (LAM),"Latin America, Central",26,South America,other,other,other
1,1,Admin-0 countries,Costa Rica,CRI,0,2,Sovereign country,Costa Rica,CRI,0,Costa Rica,CRI,0,Costa Rica,CRI,Costa Rica,C.R.,CR,Republic of Costa Rica,NA,Costa Rica,2,4253877,48320,0,CR,CRI,188,CRI,-84.17542309600948,9.965671127464525,CRI,Costa Rica,South America,South America,Latin America and the Caribbean,Meso-America,Rest Central America,Rest of Central Am,Central America,ALM,Latin America and the Caribbean (LAM),"Latin America, Central",27,Central America,other,other,other
1,1,Admin-0 countries,Cuba,CUB,0,2,Sovereign country,Cuba,CUB,0,Cuba,CUB,0,Cuba,CUB,Cuba,Cuba,CU,Republic of Cuba,NA,Cuba,4,11451652,108200,0,CU,CUB,192,CUB,-78.96068490970256,21.63175154102523,CUB,Cuba,South America,South America,Latin America and the Caribbean,Caribbean,Rest Central America,Rest of Central Am,Caribbean,ALM,Latin America and the Caribbean (LAM),Caribbean,28,Caribbean,other,SID,other
1,1,Admin-0 countries,Northern Cyprus,CYN,0,2,Sovereign country,Northern Cyprus,CYN,0,Northern Cyprus,CYN,0,Northern Cyprus,CYN,N. Cyprus,N. Cy.,CN,NA,NA,"Cyprus, Northern",8,265100,3600,-99,-99,CYN,-99,CYN,33.558285959224904,35.27395768125971,CYN,Northern Cyprus,Europe,Eurasia,Europe,Central Europe,Central Europe,Europe,Europe,OECD90,Western Europe (WEU),"Europe, Western",25,Europe,other,other,other
1,1,Admin-0 countries,Cyprus,CYP,0,2,Sovereign country,Cyprus,CYP,0,Cyprus,CYP,0,Cyprus,CYP,Cyprus,Cyp.,CY,Republic of Cyprus,NA,Cyprus,7,531640,22700,0,CY,CYP,196,CYP,33.03955380295407,34.90706085094344,CYP,Cyprus,Europe,Eurasia,Europe,Central Europe,Central Europe,Europe,Europe,OECD90,Western Europe (WEU),"Europe, Western",25,Europe,other,other,other
1,1,Admin-0 countries,Czech Republic,CZE,0,2,Sovereign country,Czech Republic,CZE,0,Czech Republic,CZE,0,Czech Republic,CZE,Czech Rep.,Cz. Rep.,CZ,Czech Republic,NA,Czech Republic,6,10211904,265200,0,CZ,CZE,203,CZE,15.33455810236582,49.77524529436903,CZE,Czech Republic,Europe,Eurasia,Europe,Central Europe,Central Europe,Europe,Europe,REF,Central and Eastern Europe (EEU),"Europe, Central",25,Europe,other,other,other
1,1,Admin-0 countries,Germany,DEU,0,2,Sovereign country,Germany,DEU,0,Germany,DEU,0,Germany,DEU,Germany,Ger.,D,Federal Republic of Germany,NA,Germany,1,82329758,2918000,0,DE,DEU,276,DEU,10.288485092742887,51.133722690407815,DEU,Germany,Europe,Eurasia,Europe,Western Europe,Western Europe,Europe,Europe,OECD90,Western Europe (WEU),"Europe, Western",16,Germany,other,other,other
1,1,Admin-0 countries,Djibouti,DJI,0,2,Sovereign country,Djibouti,DJI,0,Djibouti,DJI,0,Djibouti,DJI,Djibouti,Dji.,DJ,Republic of Djibouti,NA,Djibouti,8,516055,1885,0,DJ,DJI,262,DJI,42.49801973604449,11.773044395533928,DJI,Djibouti,Africa,Africa,Africa,Eastern Africa,Eastern Africa,Sub-Sarahan Africa,South+E Africa,ALM,Sub-Saharan Africa (AFR),"Sub-Saharan Africa, East",24,Southern and East Africa,LDC,other,other
1,1,Admin-0 countries,Denmark,DN1,0,2,Country,Denmark,DNK,0,Denmark,DNK,0,Denmark,DNK,Denmark,Den.,DK,Kingdom of Denmark,NA,Denmark,12,5500510,203600,0,DK,DNK,208,DNK,9.310777783804676,56.219626236447155,DNK,Denmark,Europe,Eurasia,Europe,Western Europe,Western Europe,Europe,Europe,OECD90,Western Europe (WEU),"Europe, Western",25,Europe,other,other,other
1,1,Admin-0 countries,Dominican Republic,DOM,0,2,Sovereign country,Dominican Republic,DOM,0,Dominican Republic,DOM,0,Dominican Republic,DOM,Dominican Rep.,Dom. Rep.,DO,NA,NA,Dominican Republic,7,9650054,78000,0,DO,DOM,214,DOM,-70.46235845697532,18.884487087982258,DOM,Dominican Republic,South America,South America,Latin America and the Caribbean,Caribbean,Rest Central America,Rest of Central Am,Caribbean,ALM,Latin America and the Caribbean (LAM),Caribbean,28,Caribbean,other,SID,other
1,1,Admin-0 countries,Algeria,DZA,0,2,Sovereign country,Algeria,DZA,0,Algeria,DZA,0,Algeria,DZA,Algeria,Alg.,DZ,People's Democratic Republic of Algeria,NA,Algeria,3,34178188,232900,0,DZ,DZA,12,DZA,2.598047791618353,28.185481278657544,DZA,Algeria,Africa,Africa,Africa,North Africa,Northern Africa,North Africa,North Africa,ALM,Middle East and North Africa (MEA),North Africa/Middle East,22,North Africa,other,other,other
1,1,Admin-0 countries,Ecuador,ECU,0,2,Sovereign country,Ecuador,ECU,0,Ecuador,ECU,0,Ecuador,ECU,Ecuador,Ecu.,EC,Republic of Ecuador,NA,Ecuador,12,14573101,107700,0,EC,ECU,218,ECU,-78.38416674608374,-1.4547717055405798,ECU,Ecuador,South America,South America,Latin America and the Caribbean,South America,Rest South America,Rest of South Am,South America,ALM,Latin America and the Caribbean (LAM),"Latin America, Andean",26,South America,other,other,other
1,1,Admin-0 countries,Egypt,EGY,0,2,Sovereign country,Egypt,EGY,0,Egypt,EGY,0,Egypt,EGY,Egypt,Egypt,EG,Arab Republic of Egypt,NA,Egypt,2,83082869,443700,0,EG,EGY,818,EGY,29.844461513124386,26.506619999749546,EGY,Egypt,Africa,Africa,Africa,North Africa,Northern Africa,North Africa,North Africa,ALM,Middle East and North Africa (MEA),North Africa/Middle East,22,North Africa,other,other,other
1,1,Admin-0 countries,Eritrea,ERI,0,2,Sovereign country,Eritrea,ERI,0,Eritrea,ERI,0,Eritrea,ERI,Eritrea,Erit.,ER,State of Eritrea,NA,Eritrea,12,5647168,3945,0,ER,ERI,232,ERI,38.67817734221432,15.427275657917878,ERI,Eritrea,Africa,Africa,Africa,Eastern Africa,Eastern Africa,Sub-Sarahan Africa,South+E Africa,ALM,Sub-Saharan Africa (AFR),"Sub-Saharan Africa, East",24,Southern and East Africa,LDC,other,other
1,1,Admin-0 countries,Spain,ESP,0,2,Sovereign country,Spain,ESP,0,Spain,ESP,0,Spain,ESP,Spain,Sp.,E,Kingdom of Spain,NA,Spain,5,40525002,1403000,0,ES,ESP,724,ESP,-3.617020602387373,40.34865610622673,ESP,Spain,Europe,Eurasia,Europe,Western Europe,Western Europe,Europe,Europe,OECD90,Western Europe (WEU),"Europe, Western",25,Europe,other,other,other
1,1,Admin-0 countries,Estonia,EST,0,2,Sovereign country,Estonia,EST,0,Estonia,EST,0,Estonia,EST,Estonia,Est.,EST,Republic of Estonia,NA,Estonia,10,1299371,27410,0,EE,EST,233,EST,25.824728375319907,58.64369524070696,EST,Estonia,Europe,Eurasia,Europe,Central Europe,Central Europe,Europe,Europe,REF,Newly Independent States of FSU (FSU),"Europe, Eastern",25,Europe,other,other,other
1,1,Admin-0 countries,Ethiopia,ETH,0,2,Sovereign country,Ethiopia,ETH,0,Ethiopia,ETH,0,Ethiopia,ETH,Ethiopia,Eth.,ET,Federal Democratic Republic of Ethiopia,NA,Ethiopia,13,85237338,68770,0,ET,ETH,231,ETH,39.551255792937795,8.653999188132628,ETH,Ethiopia,Africa,Africa,Africa,Eastern Africa,Eastern Africa,Sub-Sarahan Africa,South+E Africa,ALM,Sub-Saharan Africa (AFR),"Sub-Saharan Africa, East",24,Southern and East Africa,LDC,other,LLDC
1,1,Admin-0 countries,Finland,FI1,0,2,Country,Finland,FIN,0,Finland,FIN,0,Finland,FIN,Finland,Fin.,FIN,Republic of Finland,NA,Finland,6,5250275,193500,0,FI,FIN,246,FIN,26.211764697394543,64.50409391856743,FIN,Finland,Europe,Eurasia,Europe,Western Europe,Western Europe,Europe,Europe,OECD90,Western Europe (WEU),"Europe, Western",25,Europe,other,other,other
1,1,Admin-0 countries,Fiji,FJI,0,2,Sovereign country,Fiji,FJI,0,Fiji,FJI,0,Fiji,FJI,Fiji,Fiji,FJ,Republic of the Fiji Islands,NA,Fiji,2,944720,3579,0,FJ,FJI,242,FJI,177.99707018336375,-17.830935892544773,FJI,Fiji,Australia,Australia,Asia and the Pacific,South Pacific,Oceania,Oceania,Australasia,ASIA,Other Pacific Asia (PAS),Oceania,29,Rest of Australasia,other,SID,other
1,1,Admin-0 countries,United Kingdom,GB1,1,2,Dependency,Falkland Islands,FLK,0,Falkland Islands,FLK,0,Falkland Islands,FLK,Falkland Is.,Flk. Is.,FK,Falkland Islands (Islas Malvinas),U.K.,Falkland Islands,3,3140,105.1,0,FK,FLK,238,FLK,-59.420972793110195,-51.71322176551183,FLK,Falkland Islands,South America,South America,Latin America and the Caribbean,South America,Rest South America,Rest of South Am,South America,ALM,Latin America and the Caribbean (LAM),"Latin America, Southern",26,South America,other,other,other
1,1,Admin-0 countries,France,FR1,0,2,Country,France,FRA,0,France,FRA,0,France,FRA,France,Fr.,F,French Republic,NA,France,11,64057792,2128000,0,FR,FRA,250,FRA,2.3390886460293543,46.606463372863175,FRA,France,Europe,Eurasia,Europe,Western Europe,Western Europe,Europe,Europe,OECD90,Western Europe (WEU),"Europe, Western",14,France,other,other,other
1,1,Admin-0 countries,Gabon,GAB,0,2,Sovereign country,Gabon,GAB,0,Gabon,GAB,0,Gabon,GAB,Gabon,Gabon,GA,Gabonese Republic,NA,Gabon,5,1514993,21110,0,GA,GAB,266,GAB,11.687751174902045,-0.6470481398040286,GAB,Gabon,Africa,Africa,Africa,Central Africa,Western Africa,Sub-Sarahan Africa,West Africa,ALM,Sub-Saharan Africa (AFR),"Sub-Saharan Africa, Central",23,West Africa,other,other,other
1,1,Admin-0 countries,United Kingdom,GB1,0,2,Country,United Kingdom,GBR,0,United Kingdom,GBR,0,United Kingdom,GBR,United Kingdom,U.K.,GB,United Kingdom of Great Britain and Northern Ireland,NA,United Kingdom,3,61113205,2226000,0,GB,GBR,826,GBR,-2.657992979385631,53.88335871484817,GBR,United Kingdom,Europe,Eurasia,Europe,Western Europe,Western Europe,Europe,Europe,OECD90,Western Europe (WEU),"Europe, Western",13,UK,other,other,other
1,1,Admin-0 countries,Georgia,GEO,0,2,Sovereign country,Georgia,GEO,0,Georgia,GEO,0,Georgia,GEO,Georgia,Geo.,GE,NA,NA,Georgia,2,4615807,21510,0,GE,GEO,268,GEO,43.48154041978167,42.16201869983145,GEO,Georgia,Europe,Eurasia,Europe,Eastern Europe,Russia+,FSU,Europe,REF,Newly Independent States of FSU (FSU),"Asia, Central",25,Europe,other,other,other
1,1,Admin-0 countries,Ghana,GHA,0,2,Sovereign country,Ghana,GHA,0,Ghana,GHA,0,Ghana,GHA,Ghana,Ghana,GH,Republic of Ghana,NA,Ghana,4,23832495,34200,0,GH,GHA,288,GHA,-1.2369685557063999,7.928651813099651,GHA,Ghana,Africa,Africa,Africa,Western Africa,Western Africa,Sub-Sarahan Africa,West Africa,ALM,Sub-Saharan Africa (AFR),"Sub-Saharan Africa, West",23,West Africa,other,other,other
1,1,Admin-0 countries,Guinea,GIN,0,2,Sovereign country,Guinea,GIN,0,Guinea,GIN,0,Guinea,GIN,Guinea,Gin.,GN,Republic of Guinea,NA,Guinea,2,10057975,10600,0,GN,GIN,324,GIN,-11.060853741185452,10.448272877271346,GIN,Guinea,Africa,Africa,Africa,Western Africa,Western Africa,Sub-Sarahan Africa,West Africa,ALM,Sub-Saharan Africa (AFR),"Sub-Saharan Africa, West",23,West Africa,LDC,other,other
1,1,Admin-0 countries,Gambia,GMB,0,2,Sovereign country,Gambia,GMB,0,Gambia,GMB,0,Gambia,GMB,Gambia,Gambia,GM,Republic of the Gambia,NA,Gambia,8,1782893,2272,0,GM,GMB,270,GMB,-15.431872807730835,13.47533435870166,GMB,Gambia,Africa,Africa,Africa,Western Africa,Western Africa,Sub-Sarahan Africa,West Africa,ALM,Sub-Saharan Africa (AFR),"Sub-Saharan Africa, West",23,West Africa,LDC,other,other
1,1,Admin-0 countries,Guinea Bissau,GNB,0,2,Sovereign country,Guinea Bissau,GNB,0,Guinea Bissau,GNB,0,Guinea Bissau,GNB,Guinea Bissau,GnB.,GW,Republic of Guinea Bissau,NA,Guinea Bissau (Guinea-Bissau),4,1533964,904.2,0,GW,GNB,624,GNB,-15.11062375166788,12.022704382325683,GNB,Guinea Bissau,Africa,Africa,Africa,Western Africa,Western Africa,Sub-Sarahan Africa,West Africa,ALM,Sub-Saharan Africa (AFR),"Sub-Saharan Africa, West",23,West Africa,LDC,SID,other
1,1,Admin-0 countries,Equatorial Guinea,GNQ,0,2,Sovereign country,Equatorial Guinea,GNQ,0,Equatorial Guinea,GNQ,0,Equatorial Guinea,GNQ,Eq. Guinea,Eq. G.,GQ,Republic of Equatorial Guinea,NA,Equatorial Guinea,8,633441,22950,0,GQ,GNQ,226,GNQ,10.366031325064029,1.6458643199600753,GNQ,Equatorial Guinea,Africa,Africa,Africa,Central Africa,Western Africa,Sub-Sarahan Africa,West Africa,ALM,Sub-Saharan Africa (AFR),"Sub-Saharan Africa, Central",23,West Africa,LDC,other,other
1,1,Admin-0 countries,Greece,GRC,0,2,Sovereign country,Greece,GRC,0,Greece,GRC,0,Greece,GRC,Greece,Greece,GR,Hellenic Republic,NA,Greece,9,10737428,343000,0,GR,GRC,300,GRC,22.563888195788813,39.341746582927186,GRC,Greece,Europe,Eurasia,Europe,Western Europe,Western Europe,Europe,Europe,OECD90,Western Europe (WEU),"Europe, Western",25,Europe,other,other,other
1,1,Admin-0 countries,Denmark,DN1,1,2,Country,Greenland,GRL,0,Greenland,GRL,0,Greenland,GRL,Greenland,Grlnd.,GL,NA,Den.,Greenland,12,57600,1100,0,GL,GRL,304,GRL,-41.50018111492097,74.77048769398985,GRL,Greenland,Europe,Eurasia,Europe,Polar,Greenland,Europe,Europe,OECD90,Western Europe (WEU),"Europe, Western",25,Europe,other,other,other
1,1,Admin-0 countries,Guatemala,GTM,0,2,Sovereign country,Guatemala,GTM,0,Guatemala,GTM,0,Guatemala,GTM,Guatemala,Guat.,GT,Republic of Guatemala,NA,Guatemala,6,13276517,68580,0,GT,GTM,320,GTM,-90.36945836053151,15.69936061202691,GTM,Guatemala,South America,South America,Latin America and the Caribbean,Meso-America,Rest Central America,Rest of Central Am,Central America,ALM,Latin America and the Caribbean (LAM),"Latin America, Central",27,Central America,other,other,other
1,1,Admin-0 countries,Guyana,GUY,0,2,Sovereign country,Guyana,GUY,0,Guyana,GUY,0,Guyana,GUY,Guyana,Guy.,GY,Cooperative Republic of Guyana,NA,Guyana,8,772298,2966,0,GY,GUY,328,GUY,-58.97120310856249,4.790225375174757,GUY,Guyana,South America,South America,Latin America and the Caribbean,South America,Rest South America,Rest of South Am,South America,ALM,Latin America and the Caribbean (LAM),Caribbean,26,South America,other,SID,other
1,1,Admin-0 countries,Honduras,HND,0,2,Sovereign country,Honduras,HND,0,Honduras,HND,0,Honduras,HND,Honduras,Hond.,HN,Republic of Honduras,NA,Honduras,5,7792854,33720,0,HN,HND,340,HND,-86.58996383801546,14.822947081652941,HND,Honduras,South America,South America,Latin America and the Caribbean,Meso-America,Rest Central America,Rest of Central Am,Central America,ALM,Latin America and the Caribbean (LAM),"Latin America, Central",27,Central America,other,other,other
1,1,Admin-0 countries,Croatia,HRV,0,2,Sovereign country,Croatia,HRV,0,Croatia,HRV,0,Croatia,HRV,Croatia,Cro.,HR,Republic of Croatia,NA,Croatia,1,4489409,82390,0,HR,HRV,191,HRV,16.566191106662153,45.016234367971094,HRV,Croatia,Europe,Eurasia,Europe,Central Europe,Central Europe,Europe,Europe,REF,Central and Eastern Europe (EEU),"Europe, Central",25,Europe,other,other,other
1,1,Admin-0 countries,Haiti,HTI,0,2,Sovereign country,Haiti,HTI,0,Haiti,HTI,0,Haiti,HTI,Haiti,Haiti,HT,Republic of Haiti,NA,Haiti,2,9035536,11500,0,HT,HTI,332,HTI,-72.65801330535575,18.90070069184333,HTI,Haiti,South America,South America,Latin America and the Caribbean,Caribbean,Rest Central America,Rest of Central Am,Caribbean,ALM,Latin America and the Caribbean (LAM),Caribbean,28,Caribbean,LDC,SID,other
1,1,Admin-0 countries,Hungary,HUN,0,2,Sovereign country,Hungary,HUN,0,Hungary,HUN,0,Hungary,HUN,Hungary,Hun.,HU,Republic of Hungary,NA,Hungary,5,9905596,196600,0,HU,HUN,348,HUN,19.357628627745925,47.199951171954254,HUN,Hungary,Europe,Eurasia,Europe,Central Europe,Central Europe,Europe,Europe,REF,Central and Eastern Europe (EEU),"Europe, Central",25,Europe,other,other,other
1,1,Admin-0 countries,Indonesia,IDN,0,2,Sovereign country,Indonesia,IDN,0,Indonesia,IDN,0,Indonesia,IDN,Indonesia,Indo.,INDO,Republic of Indonesia,NA,Indonesia,11,240271522,914600,0,ID,IDN,360,IDN,114.02268353252535,-0.25430155722214104,IDN,Indonesia,Asia,Eurasia,Asia and the Pacific,Southeast Asia,Indonesia+,South East Asia,East Asia,ASIA,Other Pacific Asia (PAS),"Asia, Southeast",11,Indonesia,other,other,other
1,1,Admin-0 countries,India,IND,0,2,Sovereign country,India,IND,0,India,IND,0,India,IND,India,India,IND,Republic of India,NA,India,2,1166079217,3297000,0,IN,IND,356,IND,79.59370376325379,22.925006407408496,IND,India,Asia,Eurasia,Asia and the Pacific,South Asia,India+,India,South Asia,ASIA,South Asia (SAS),"Asia, South",6,India,other,other,other
1,1,Admin-0 countries,Ireland,IRL,0,2,Sovereign country,Ireland,IRL,0,Ireland,IRL,0,Ireland,IRL,Ireland,Ire.,IRL,NA,NA,Ireland,2,4203200,188400,0,IE,IRL,372,IRL,-8.010236544877014,53.18059120995005,IRL,Ireland,Europe,Eurasia,Europe,Western Europe,Western Europe,Europe,Europe,OECD90,Western Europe (WEU),"Europe, Western",25,Europe,other,other,other
1,1,Admin-0 countries,Iran,IRN,0,2,Sovereign country,Iran,IRN,0,Iran,IRN,0,Iran,IRN,Iran,Iran,IRN,Islamic Republic of Iran,NA,Iran,13,66429284,841700,0,IR,IRN,364,IRN,54.28545149689145,32.518917317625416,IRN,Iran,Asia,Eurasia,Asia and the Pacific,South Asia,Middle East,Middle East,West Asia,ALM,Middle East and North Africa (MEA),North Africa/Middle East,30,Middle East,other,other,other
1,1,Admin-0 countries,Iraq,IRQ,0,2,Sovereign country,Iraq,IRQ,0,Iraq,IRQ,0,Iraq,IRQ,Iraq,Iraq,IRQ,Republic of Iraq,NA,Iraq,1,28945657,103900,0,IQ,IRQ,368,IRQ,43.75691141871339,33.03682234103673,IRQ,Iraq,Asia,Eurasia,West Asia,Mashriq,Middle East,Middle East,West Asia,ALM,Middle East and North Africa (MEA),North Africa/Middle East,30,Middle East,other,other,other
1,1,Admin-0 countries,Iceland,ISL,0,2,Sovereign country,Iceland,ISL,0,Iceland,ISL,0,Iceland,ISL,Iceland,Iceland,IS,Republic of Iceland,NA,Iceland,9,306694,12710,0,IS,ISL,352,ISL,-18.76102877083177,65.07427633529106,ISL,Iceland,Europe,Eurasia,Europe,Western Europe,Western Europe,Europe,Europe,OECD90,Western Europe (WEU),"Europe, Western",25,Europe,other,other,other
1,1,Admin-0 countries,Israel,ISR,0,2,Sovereign country,Israel,ISR,0,Israel,ISR,0,Israel,ISR,Israel,Isr.,IS,State of Israel,NA,Israel,9,7233701,201400,0,IL,ISR,376,ISR,35.00385004873621,31.484917814965378,ISR,Israel,Europe,Eurasia,Europe,Western Europe,Middle East,Europe,Europe,ALM,Middle East and North Africa (MEA),"Europe, Western",25,Europe,other,other,other
1,1,Admin-0 countries,Italy,ITA,0,2,Sovereign country,Italy,ITA,0,Italy,ITA,0,Italy,ITA,Italy,Italy,I,Italian Republic,NA,Italy,7,58126212,1823000,0,IT,ITA,380,ITA,12.219476487398472,43.47247610758603,ITA,Italy,Europe,Eurasia,Europe,Western Europe,Western Europe,Europe,Europe,OECD90,Western Europe (WEU),"Europe, Western",15,Italy,other,other,other
1,1,Admin-0 countries,Jamaica,JAM,0,2,Sovereign country,Jamaica,JAM,0,Jamaica,JAM,0,Jamaica,JAM,Jamaica,Jam.,J,NA,NA,Jamaica,10,2825928,20910,0,JM,JAM,388,JAM,-77.32425480164892,18.137636127868436,JAM,Jamaica,South America,South America,Latin America and the Caribbean,Caribbean,Rest Central America,Rest of Central Am,Caribbean,ALM,Latin America and the Caribbean (LAM),Caribbean,28,Caribbean,other,SID,other
1,1,Admin-0 countries,Jordan,JOR,0,2,Sovereign country,Jordan,JOR,0,Jordan,JOR,0,Jordan,JOR,Jordan,Jord.,J,Hashemite Kingdom of Jordan,NA,Jordan,4,6342948,31610,0,JO,JOR,400,JOR,36.7794549063252,31.24549058474842,JOR,Jordan,Asia,Eurasia,West Asia,Mashriq,Middle East,Middle East,West Asia,ALM,Middle East and North Africa (MEA),North Africa/Middle East,30,Middle East,other,other,other
1,1,Admin-0 countries,Japan,JPN,0,2,Sovereign country,Japan,JPN,0,Japan,JPN,0,Japan,JPN,Japan,Japan,J,NA,NA,Japan,4,127078679,4329000,0,JP,JPN,392,JPN,136.8819473159836,36.01907536594398,JPN,Japan,Asia,Eurasia,Asia and the Pacific,NW Pacific and East Asia,Japan,Japan,East Asia,OECD90,Pacific OECD (PAO),"Asia Pacific, High Income",4,Japan,other,other,other
1,1,Admin-0 countries,Kazakhstan,KAZ,0,2,Sovereign country,Kazakhstan,KAZ,0,Kazakhstan,KAZ,0,Kazakhstan,KAZ,Kazakhstan,Kaz.,KZ,Republic of Kazakhstan,NA,Kazakhstan,1,15399437,175800,0,KZ,KAZ,398,KAZ,67.28460860746561,48.191662092495946,KAZ,Kazakhstan,Asia,Eurasia,Asia and the Pacific,Central Asia,Asia-Stan,FSU,Central Asia,REF,Newly Independent States of FSU (FSU),"Asia, Central",21,Rest of Central Asia,other,other,LLDC
1,1,Admin-0 countries,Kenya,KEN,0,2,Sovereign country,Kenya,KEN,0,Kenya,KEN,0,Kenya,KEN,Kenya,Ken.,KE,Republic of Kenya,NA,Kenya,3,39002772,61510,0,KE,KEN,404,KEN,37.7915552866614,0.5959662521769503,KEN,Kenya,Africa,Africa,Africa,Eastern Africa,Eastern Africa,Sub-Sarahan Africa,South+E Africa,ALM,Sub-Saharan Africa (AFR),"Sub-Saharan Africa, East",24,Southern and East Africa,other,other,other
1,1,Admin-0 countries,Kyrgyzstan,KGZ,0,2,Sovereign country,Kyrgyzstan,KGZ,0,Kyrgyzstan,KGZ,0,Kyrgyzstan,KGZ,Kyrgyzstan,Kgz.,KG,Kyrgyz Republic,NA,Kyrgyzstan,6,5431747,11610,0,KG,KGZ,417,KGZ,74.62040481092558,41.50689371318262,KGZ,Kyrgyzstan,Asia,Eurasia,Asia and the Pacific,Central Asia,Asia-Stan,FSU,Central Asia,REF,Newly Independent States of FSU (FSU),"Asia, Central",21,Rest of Central Asia,other,other,LLDC
1,1,Admin-0 countries,Cambodia,KHM,0,2,Sovereign country,Cambodia,KHM,0,Cambodia,KHM,0,Cambodia,KHM,Cambodia,Camb.,KH,Kingdom of Cambodia,NA,Cambodia,5,14494293,27940,0,KH,KHM,116,KHM,104.87608532525195,12.684728629393506,KHM,Cambodia,Asia,Eurasia,Asia and the Pacific,Southeast Asia,Southeastern Asia,South East Asia,East Asia,ASIA,Centrally planned Asia and China (CPA),"Asia, Southeast",20,Rest of East Asia,LDC,other,other
1,1,Admin-0 countries,South Korea,KOR,0,2,Sovereign country,South Korea,KOR,0,South Korea,KOR,0,South Korea,KOR,S. Korea,S.Kor.,KR,Republic of Korea,NA,"Korea, South",5,48508972,1335000,0,KR,KOR,410,KOR,127.8213171283307,36.42759860415487,KOR,South Korea,Asia,Eurasia,Asia and the Pacific,NW Pacific and East Asia,Korea,China,East Asia,ASIA,Other Pacific Asia (PAS),"Asia Pacific, High Income",12,South Korea,other,other,other
1,1,Admin-0 countries,Kosovo,KOS,0,2,Sovereign country,Kosovo,KOS,0,Kosovo,KOS,0,Kosovo,KOS,Kosovo,Kos.,KO,NA,NA,Kosovo,11,1804838,5352,0,-99,KOS,-99,KOS,20.895352481197897,42.57936482582592,KOS,Kosovo,Europe,Eurasia,Europe,Central Europe,Central Europe,Europe,Europe,REF,Central and Eastern Europe (EEU),"Europe, Central",25,Europe,other,other,other
1,1,Admin-0 countries,Kuwait,KWT,0,2,Sovereign country,Kuwait,KWT,0,Kuwait,KWT,0,Kuwait,KWT,Kuwait,Kwt.,KW,State of Kuwait,NA,Kuwait,2,2691158,149100,0,KW,KWT,414,KWT,47.600098887626416,29.307266634033564,KWT,Kuwait,Asia,Eurasia,West Asia,Mashriq,Middle East,Middle East,West Asia,ALM,Middle East and North Africa (MEA),North Africa/Middle East,30,Middle East,other,other,other
1,1,Admin-0 countries,Laos,LAO,0,2,Sovereign country,Laos,LAO,0,Laos,LAO,0,Laos,LAO,Laos,Laos,LA,Lao People's Democratic Republic,NA,Laos,9,6834942,13980,0,LA,LAO,418,LAO,103.75025989504465,18.44497808903609,LAO,Laos,Asia,Eurasia,Asia and the Pacific,Southeast Asia,Southeastern Asia,South East Asia,East Asia,ASIA,Centrally planned Asia and China (CPA),"Asia, Southeast",20,Rest of East Asia,LDC,other,LLDC
1,1,Admin-0 countries,Lebanon,LBN,0,2,Sovereign country,Lebanon,LBN,0,Lebanon,LBN,0,Lebanon,LBN,Lebanon,Leb.,LB,Lebanese Republic,NA,Lebanon,12,4017095,44060,0,LB,LBN,422,LBN,35.870986320016435,33.91182720781994,LBN,Lebanon,Asia,Eurasia,West Asia,Mashriq,Middle East,Middle East,West Asia,ALM,Middle East and North Africa (MEA),North Africa/Middle East,30,Middle East,other,other,other
1,1,Admin-0 countries,Liberia,LBR,0,2,Sovereign country,Liberia,LBR,0,Liberia,LBR,0,Liberia,LBR,Liberia,Liberia,LR,Republic of Liberia,NA,Liberia,9,3441790,1526,0,LR,LBR,430,LBR,-9.41083615437112,6.431619862252996,LBR,Liberia,Africa,Africa,Africa,Western Africa,Western Africa,Sub-Sarahan Africa,West Africa,ALM,Sub-Saharan Africa (AFR),"Sub-Saharan Africa, West",23,West Africa,LDC,other,other
1,1,Admin-0 countries,Libya,LBY,0,2,Sovereign country,Libya,LBY,0,Libya,LBY,0,Libya,LBY,Libya,Libya,LY,Great Socialist People's Libyan Arab Jamahiriya,NA,Libya,11,6310434,88830,0,LY,LBY,434,LBY,17.974352779160434,26.997460407020323,LBY,Libya,Africa,Africa,Africa,North Africa,Northern Africa,North Africa,North Africa,ALM,Middle East and North Africa (MEA),North Africa/Middle East,22,North Africa,other,other,other
1,1,Admin-0 countries,Sri Lanka,LKA,0,2,Sovereign country,Sri Lanka,LKA,0,Sri Lanka,LKA,0,Sri Lanka,LKA,Sri Lanka,Sri L.,LK,Democratic Socialist Republic of Sri Lanka,NA,Sri Lanka,9,21324791,91870,0,LK,LKA,144,LKA,80.66723574931648,7.7005344172481065,LKA,Sri Lanka,Asia,Eurasia,Asia and the Pacific,South Asia,India+,Rest of South Asia,South Asia,ASIA,South Asia (SAS),"Asia, Southeast",19,Rest of South Asia,other,other,other
1,1,Admin-0 countries,Lesotho,LSO,0,2,Sovereign country,Lesotho,LSO,0,Lesotho,LSO,0,Lesotho,LSO,Lesotho,Les.,LS,Republic of Lesotho,NA,Lesotho,8,2130819,3293,0,LS,LSO,426,LSO,28.170105295170497,-29.62529049369201,LSO,Lesotho,Africa,Africa,Africa,Southern Africa,Southern Africa,Sub-Sarahan Africa,South+E Africa,ALM,Sub-Saharan Africa (AFR),"Sub-Saharan Africa, Southern",24,Southern and East Africa,LDC,other,LLDC
1,1,Admin-0 countries,Lithuania,LTU,0,2,Sovereign country,Lithuania,LTU,0,Lithuania,LTU,0,Lithuania,LTU,Lithuania,Lith.,LT,Republic of Lithuania,NA,Lithuania,9,3555179,63330,0,LT,LTU,440,LTU,23.880640275843497,55.28431948476605,LTU,Lithuania,Europe,Eurasia,Europe,Central Europe,Central Europe,Europe,Europe,REF,Newly Independent States of FSU (FSU),"Europe, Eastern",25,Europe,other,other,other
1,1,Admin-0 countries,Luxembourg,LUX,0,2,Sovereign country,Luxembourg,LUX,0,Luxembourg,LUX,0,Luxembourg,LUX,Luxembourg,Lux.,L,Grand Duchy of Luxembourg,NA,Luxembourg,7,491775,39370,0,LU,LUX,442,LUX,5.965223432343995,49.76570507415101,LUX,Luxembourg,Europe,Eurasia,Europe,Western Europe,Western Europe,Europe,Europe,OECD90,Western Europe (WEU),"Europe, Western",25,Europe,other,other,other
1,1,Admin-0 countries,Latvia,LVA,0,2,Sovereign country,Latvia,LVA,0,Latvia,LVA,0,Latvia,LVA,Latvia,Lat.,LV,Republic of Latvia,NA,Latvia,13,2231503,38860,0,LV,LVA,428,LVA,24.833296149803456,56.807175134279284,LVA,Latvia,Europe,Eurasia,Europe,Central Europe,Central Europe,Europe,Europe,REF,Newly Independent States of FSU (FSU),"Europe, Eastern",25,Europe,other,other,other
1,1,Admin-0 countries,Morocco,MAR,0,2,Sovereign country,Morocco,MAR,0,Morocco,MAR,0,Morocco,MAR,Morocco,Mor.,MA,Kingdom of Morocco,NA,Morocco,9,34859364,136600,0,MA,MAR,504,MAR,-8.420479544549643,29.885394698302104,MAR,Morocco,Africa,Africa,Africa,North Africa,Northern Africa,North Africa,North Africa,ALM,Middle East and North Africa (MEA),North Africa/Middle East,22,North Africa,other,other,other
1,1,Admin-0 countries,Moldova,MDA,0,2,Sovereign country,Moldova,MDA,0,Moldova,MDA,0,Moldova,MDA,Moldova,Mda.,MD,Republic of Moldova,NA,Moldova,12,4320748,10670,0,MD,MDA,498,MDA,28.410482790803297,47.20367642606756,MDA,Moldova,Europe,Eurasia,Europe,Eastern Europe,Ukraine+,FSU,Europe,REF,Newly Independent States of FSU (FSU),"Europe, Eastern",25,Europe,other,other,LLDC
1,1,Admin-0 countries,Madagascar,MDG,0,2,Sovereign country,Madagascar,MDG,0,Madagascar,MDG,0,Madagascar,MDG,Madagascar,Mad.,MG,Republic of Madagascar,NA,Madagascar,3,20653556,20130,0,MG,MDG,450,MDG,46.6911709147164,-19.356114077828796,MDG,Madagascar,Africa,Africa,Africa,Western Indian Ocean,Eastern Africa,Sub-Sarahan Africa,South+E Africa,ALM,Sub-Saharan Africa (AFR),"Sub-Saharan Africa, East",24,Southern and East Africa,LDC,other,other
1,1,Admin-0 countries,Mexico,MEX,0,2,Sovereign country,Mexico,MEX,0,Mexico,MEX,0,Mexico,MEX,Mexico,Mex.,MX,United Mexican States,NA,Mexico,3,111211789,1563000,0,MX,MEX,484,MEX,-102.5763495239869,23.93537190224484,MEX,Mexico,South America,South America,Latin America and the Caribbean,Meso-America,Mexico,Mexico,Central America,ALM,Latin America and the Caribbean (LAM),"Latin America, Central",8,Mexico,other,other,other
1,1,Admin-0 countries,Macedonia,MKD,0,2,Sovereign country,Macedonia,MKD,0,Macedonia,MKD,0,Macedonia,MKD,Macedonia,Mkd.,MK,Republic of Macedonia,NA,"Macedonia, The former Yugoslav Republic of",3,2066718,18780,0,MK,MKD,807,MKD,21.697896816140066,41.60592893075937,MKD,Macedonia,Europe,Eurasia,Europe,Central Europe,Central Europe,Europe,Europe,REF,Central and Eastern Europe (EEU),"Europe, Central",25,Europe,other,other,LLDC
1,1,Admin-0 countries,Mali,MLI,0,2,Sovereign country,Mali,MLI,0,Mali,MLI,0,Mali,MLI,Mali,Mali,ML,Republic of Mali,NA,Mali,7,12666987,14590,0,ML,MLI,466,MLI,-3.54329433945334,17.2677720617007,MLI,Mali,Africa,Africa,Africa,Western Africa,Western Africa,Sub-Sarahan Africa,West Africa,ALM,Sub-Saharan Africa (AFR),"Sub-Saharan Africa, West",23,West Africa,LDC,other,LLDC
1,1,Admin-0 countries,Myanmar,MMR,0,2,Sovereign country,Myanmar,MMR,0,Myanmar,MMR,0,Myanmar,MMR,Myanmar,Myan.,MM,Union of Burma,NA,Myanmar,13,48137741,55130,0,MM,MMR,104,MMR,96.5058409420615,21.01699987377383,MMR,Myanmar,Asia,Eurasia,Asia and the Pacific,Southeast Asia,Southeastern Asia,South East Asia,East Asia,ASIA,Other Pacific Asia (PAS),"Asia, Southeast",20,Rest of East Asia,LDC,other,other
1,1,Admin-0 countries,Montenegro,MNE,0,2,Sovereign country,Montenegro,MNE,0,Montenegro,MNE,0,Montenegro,MNE,Montenegro,Mont.,ME,NA,NA,Montenegro,5,672180,6816,0,ME,MNE,499,MNE,19.286180967198277,42.78903833140131,MNE,Montenegro,Europe,Eurasia,Europe,Central Europe,Central Europe,Europe,Europe,REF,Central and Eastern Europe (EEU),"Europe, Central",25,Europe,other,other,other
1,1,Admin-0 countries,Mongolia,MNG,0,2,Sovereign country,Mongolia,MNG,0,Mongolia,MNG,0,Mongolia,MNG,Mongolia,Mong.,MN,NA,NA,Mongolia,6,3041142,9476,0,MN,MNG,496,MNG,102.94640518633793,46.82368250354818,MNG,Mongolia,Asia,Eurasia,Asia and the Pacific,NW Pacific and East Asia,China+,China,East Asia,ASIA,Centrally planned Asia and China (CPA),"Asia, Central",20,Rest of East Asia,other,other,LLDC
1,1,Admin-0 countries,Mozambique,MOZ,0,2,Sovereign country,Mozambique,MOZ,0,Mozambique,MOZ,0,Mozambique,MOZ,Mozambique,Moz.,MZ,Republic of Mozambique,NA,Mozambique,4,21669278,18940,0,MZ,MOZ,508,MOZ,35.472617154124826,-17.230446597813746,MOZ,Mozambique,Africa,Africa,Africa,Southern Africa,Southern Africa,Sub-Sarahan Africa,South+E Africa,ALM,Sub-Saharan Africa (AFR),"Sub-Saharan Africa, East",24,Southern and East Africa,LDC,other,other
1,1,Admin-0 countries,Mauritania,MRT,0,2,Sovereign country,Mauritania,MRT,0,Mauritania,MRT,0,Mauritania,MRT,Mauritania,Mrt.,MR,Islamic Republic of Mauritania,NA,Mauritania,1,3129486,6308,0,MR,MRT,478,MRT,-10.326396925234993,20.209267206353772,MRT,Mauritania,Africa,Africa,Africa,Western Africa,Western Africa,Sub-Sarahan Africa,West Africa,ALM,Sub-Saharan Africa (AFR),"Sub-Saharan Africa, West",23,West Africa,LDC,other,other
1,1,Admin-0 countries,Malawi,MWI,0,2,Sovereign country,Malawi,MWI,0,Malawi,MWI,0,Malawi,MWI,Malawi,Mal.,MW,Republic of Malawi,NA,Malawi,5,14268711,11810,0,MW,MWI,454,MWI,34.193605325579334,-13.172832716661869,MWI,Malawi,Africa,Africa,Africa,Southern Africa,Southern Africa,Sub-Sarahan Africa,South+E Africa,ALM,Sub-Saharan Africa (AFR),"Sub-Saharan Africa, East",24,Southern and East Africa,LDC,other,LLDC
1,1,Admin-0 countries,Malaysia,MYS,0,2,Sovereign country,Malaysia,MYS,0,Malaysia,MYS,0,Malaysia,MYS,Malaysia,Malay.,MY,NA,NA,Malaysia,6,25715819,384300,0,MY,MYS,458,MYS,114.67551396334079,3.548111770789708,MYS,Malaysia,Asia,Eurasia,Asia and the Pacific,Southeast Asia,Southeastern Asia,South East Asia,East Asia,ASIA,Other Pacific Asia (PAS),"Asia, Southeast",20,Rest of East Asia,other,other,other
1,1,Admin-0 countries,Namibia,NAM,0,2,Sovereign country,Namibia,NAM,0,Namibia,NAM,0,Namibia,NAM,Namibia,Nam.,"NA",Republic of Namibia,NA,Namibia,7,2108665,13250,0,"NA",NAM,516,NAM,17.156168126194085,-22.09977693173106,NAM,Namibia,Africa,Africa,Africa,Southern Africa,Southern Africa,Sub-Sarahan Africa,South+E Africa,ALM,Sub-Saharan Africa (AFR),"Sub-Saharan Africa, Southern",24,Southern and East Africa,other,other,other
1,1,Admin-0 countries,France,FR1,1,2,Dependency,New Caledonia,NCL,0,New Caledonia,NCL,0,New Caledonia,NCL,New Caledonia,New C.,NC,Territory of New Caledonia and Dependencies,Fr.,New Caledonia,11,227436,3158,0,NC,NCL,540,NCL,165.53447460087543,-21.261357612526513,NCL,New Caledonia,Australia,Australia,Asia and the Pacific,South Pacific,Oceania,Oceania,Australasia,ASIA,Other Pacific Asia (PAS),Oceania,29,Rest of Australasia,other,SID,other
1,1,Admin-0 countries,Niger,NER,0,2,Sovereign country,Niger,NER,0,Niger,NER,0,Niger,NER,Niger,Niger,NE,Republic of Niger,NA,Niger,13,15306252,10040,0,NE,NER,562,NER,9.324429338177229,17.345552353329182,NER,Niger,Africa,Africa,Africa,Western Africa,Western Africa,Sub-Sarahan Africa,West Africa,ALM,Sub-Saharan Africa (AFR),"Sub-Saharan Africa, West",23,West Africa,LDC,other,LLDC
1,1,Admin-0 countries,Nigeria,NGA,0,2,Sovereign country,Nigeria,NGA,0,Nigeria,NGA,0,Nigeria,NGA,Nigeria,Nigeria,NG,Federal Republic of Nigeria,NA,Nigeria,2,149229090,335400,0,NG,NGA,566,NGA,7.995127754089791,9.548318418209972,NGA,Nigeria,Africa,Africa,Africa,Western Africa,Western Africa,Sub-Sarahan Africa,West Africa,ALM,Sub-Saharan Africa (AFR),"Sub-Saharan Africa, West",23,West Africa,other,other,other
1,1,Admin-0 countries,Nicaragua,NIC,0,2,Sovereign country,Nicaragua,NIC,0,Nicaragua,NIC,0,Nicaragua,NIC,Nicaragua,Nic.,NI,Republic of Nicaragua,NA,Nicaragua,9,5891199,16790,0,NI,NIC,558,NIC,-85.02031850080247,12.84819042803697,NIC,Nicaragua,South America,South America,Latin America and the Caribbean,Meso-America,Rest Central America,Rest of Central Am,Central America,ALM,Latin America and the Caribbean (LAM),"Latin America, Central",27,Central America,other,other,other
1,1,Admin-0 countries,Netherlands,NL1,0,2,Country,Netherlands,NLD,0,Netherlands,NLD,0,Netherlands,NLD,Netherlands,Neth.,NL,Kingdom of the Netherlands,NA,Netherlands,9,16715999,672000,0,NL,NLD,528,NLD,5.5122171009654,52.298700374441786,NLD,Netherlands,Europe,Eurasia,Europe,Western Europe,Western Europe,Europe,Europe,OECD90,Western Europe (WEU),"Europe, Western",25,Europe,other,other,other
1,1,Admin-0 countries,Norway,NOR,0,2,Sovereign country,Norway,NOR,0,Norway,NOR,0,Norway,NOR,Norway,Nor.,N,Kingdom of Norway,NA,Norway,12,4676305,276400,0,NO,NOR,578,NOR,14.244779891176055,64.53653032901846,NOR,Norway,Europe,Eurasia,Europe,Western Europe,Western Europe,Europe,Europe,OECD90,Western Europe (WEU),"Europe, Western",25,Europe,other,other,other
1,1,Admin-0 countries,Nepal,NPL,0,2,Sovereign country,Nepal,NPL,0,Nepal,NPL,0,Nepal,NPL,Nepal,Nepal,NP,Kingdom of Nepal,NA,Nepal,12,28563377,31080,0,NP,NPL,524,NPL,84.0131736769253,28.23944001904935,NPL,Nepal,Asia,Eurasia,Asia and the Pacific,South Asia,India+,Rest of South Asia,South Asia,ASIA,South Asia (SAS),"Asia, South",19,Rest of South Asia,LDC,other,LLDC
1,1,Admin-0 countries,New Zealand,NZ1,0,2,Country,New Zealand,NZL,0,New Zealand,NZL,0,New Zealand,NZL,New Zealand,N.Z.,NZ,NA,NA,New Zealand,4,4213418,116700,0,NZ,NZL,554,NZL,170.51301137499706,-43.98581773297279,NZL,New Zealand,Australia,Australia,Asia and the Pacific,Australia and New Zealand,Oceania,Oceania,Australasia,OECD90,Pacific OECD (PAO),Australasia,29,Rest of Australasia,other,other,other
1,1,Admin-0 countries,Oman,OMN,0,2,Sovereign country,Oman,OMN,0,Oman,OMN,0,Oman,OMN,Oman,Oman,OM,Sultanate of Oman,NA,Oman,6,3418085,66980,0,OM,OMN,512,OMN,56.09759852650493,20.581080291961044,OMN,Oman,Asia,Eurasia,West Asia,Arabian Peninsula,Middle East,Middle East,West Asia,ALM,Middle East and North Africa (MEA),North Africa/Middle East,30,Middle East,other,other,other
1,1,Admin-0 countries,Pakistan,PAK,0,2,Sovereign country,Pakistan,PAK,0,Pakistan,PAK,0,Pakistan,PAK,Pakistan,Pak.,PK,Islamic Republic of Pakistan,NA,Pakistan,11,176242949,427300,0,PK,PAK,586,PAK,69.41399806318131,29.973460025547404,PAK,Pakistan,Asia,Eurasia,Asia and the Pacific,South Asia,India+,Rest of South Asia,South Asia,ASIA,South Asia (SAS),"Asia, South",19,Rest of South Asia,other,other,other
1,1,Admin-0 countries,Panama,PAN,0,2,Sovereign country,Panama,PAN,0,Panama,PAN,0,Panama,PAN,Panama,Pan.,PA,Republic of Panama,NA,Panama,3,3360474,38830,0,PA,PAN,591,PAN,-80.1091648354938,8.530019388864655,PAN,Panama,South America,South America,Latin America and the Caribbean,Meso-America,Rest Central America,Rest of Central Am,Central America,ALM,Latin America and the Caribbean (LAM),"Latin America, Central",27,Central America,other,other,other
1,1,Admin-0 countries,Peru,PER,0,2,Sovereign country,Peru,PER,0,Peru,PER,0,Peru,PER,Peru,Peru,PE,Republic of Peru,NA,Peru,11,29546963,247300,0,PE,PER,604,PER,-74.39180581684722,-9.191562905134552,PER,Peru,South America,South America,Latin America and the Caribbean,South America,Rest South America,Rest of South Am,South America,ALM,Latin America and the Caribbean (LAM),"Latin America, Andean",26,South America,other,other,other
1,1,Admin-0 countries,Philippines,PHL,0,2,Sovereign country,Philippines,PHL,0,Philippines,PHL,0,Philippines,PHL,Philippines,Phil.,PH,Republic of the Philippines,NA,Philippines,8,97976603,317500,0,PH,PHL,608,PHL,121.54444242782013,15.750944349421399,PHL,Philippines,Asia,Eurasia,Asia and the Pacific,Southeast Asia,Southeastern Asia,South East Asia,East Asia,ASIA,Other Pacific Asia (PAS),"Asia, Southeast",20,Rest of East Asia,other,other,other
1,1,Admin-0 countries,Papua New Guinea,PNG,0,2,Sovereign country,Papua New Guinea,PNG,0,Papua New Guinea,PNG,0,Papua New Guinea,PN1,Papua New Guinea,P.N.G.,PG,Independent State of Papua New Guinea,NA,Papua New Guinea,1,6057263,13210,0,PG,PNG,598,PNG,144.33121555760042,-6.6450071344689,PNG,Papua New Guinea,Australia,Australia,Asia and the Pacific,South Pacific,Oceania,Oceania,Australasia,ASIA,Other Pacific Asia (PAS),Oceania,29,Rest of Australasia,other,SID,other
1,1,Admin-0 countries,Poland,POL,0,2,Sovereign country,Poland,POL,0,Poland,POL,0,Poland,POL,Poland,Pol.,PL,Republic of Poland,NA,Poland,2,38482919,667900,0,PL,POL,616,POL,19.311014308448684,52.14826021933185,POL,Poland,Europe,Eurasia,Europe,Central Europe,Central Europe,Europe,Europe,REF,Central and Eastern Europe (EEU),"Europe, Central",17,Poland,other,other,other
1,1,Admin-0 countries,United States of America,US1,1,2,Dependency,Puerto Rico,PRI,0,Puerto Rico,PRI,0,Puerto Rico,PRI,Puerto Rico,P.R.,PR,Commonwealth of Puerto Rico,Commonwealth of U.S.A.,Puerto Rico,1,3971020,70230,0,PR,PRI,630,PRI,-66.47922227695507,18.237224570971897,PRI,Puerto Rico,South America,South America,Latin America and the Caribbean,Caribbean,Rest Central America,Rest of Central Am,Caribbean,OECD90,North America (NAM),Caribbean,28,Caribbean,other,SID,other
1,1,Admin-0 countries,North Korea,PRK,0,2,Sovereign country,North Korea,PRK,0,North Korea,PRK,0,North Korea,PRK,N. Korea,N. Kor.,KP,Democratic People's Republic of Korea,NA,"Korea, North",9,22665345,40000,0,KP,PRK,408,PRK,127.16501676281214,40.143020860844565,PRK,North Korea,Asia,Eurasia,Asia and the Pacific,NW Pacific and East Asia,Korea,China,East Asia,ASIA,Centrally planned Asia and China (CPA),"Asia, East",20,Rest of East Asia,other,other,other
1,1,Admin-0 countries,Portugal,PRT,0,2,Sovereign country,Portugal,PRT,0,Portugal,PRT,0,Portugal,PR1,Portugal,Port.,P,Portuguese Republic,NA,Portugal,4,10707924,236500,0,PT,PRT,620,PRT,-8.055765588295685,39.63404977497815,PRT,Portugal,Europe,Eurasia,Europe,Western Europe,Western Europe,Europe,Europe,OECD90,Western Europe (WEU),"Europe, Western",25,Europe,other,other,other
1,1,Admin-0 countries,Paraguay,PRY,0,2,Sovereign country,Paraguay,PRY,0,Paraguay,PRY,0,Paraguay,PRY,Paraguay,Para.,PY,Republic of Paraguay,NA,Paraguay,2,6995655,28890,0,PY,PRY,600,PRY,-58.387387833505706,-23.24804194629207,PRY,Paraguay,South America,South America,Latin America and the Caribbean,South America,Rest South America,Rest of South Am,South America,ALM,Latin America and the Caribbean (LAM),"Latin America, Tropical",26,South America,other,other,LLDC
1,1,Admin-0 countries,Qatar,QAT,0,2,Sovereign country,Qatar,QAT,0,Qatar,QAT,0,Qatar,QAT,Qatar,Qatar,QA,State of Qatar,NA,Qatar,4,833285,91330,0,QA,QAT,634,QAT,51.183502578913284,25.321850974206686,QAT,Qatar,Asia,Eurasia,West Asia,Arabian Peninsula,Middle East,Middle East,West Asia,ALM,Middle East and North Africa (MEA),North Africa/Middle East,30,Middle East,other,other,other
1,1,Admin-0 countries,Romania,ROU,0,2,Sovereign country,Romania,ROU,0,Romania,ROU,0,Romania,ROU,Romania,Rom.,RO,NA,NA,Romania,13,22215421,271400,0,RO,ROU,642,ROU,24.94325249463539,45.85710103573802,ROU,Romania,Europe,Eurasia,Europe,Central Europe,Central Europe,Europe,Europe,REF,Central and Eastern Europe (EEU),"Europe, Central",25,Europe,other,other,other
1,1,Admin-0 countries,Russia,RUS,0,2,Sovereign country,Russia,RUS,0,Russia,RUS,0,Russia,RUS,Russia,Rus.,RUS,Russian Federation,NA,Russia,7,140041247,2266000,0,RU,RUS,643,RUS,99.21652678692509,61.69256470740823,RUS,Russia,Europe,Eurasia,Europe,Eastern Europe,Russia+,Russia,Europe,REF,Newly Independent States of FSU (FSU),"Europe, Eastern",3,Russia,other,other,other
1,1,Admin-0 countries,Rwanda,RWA,0,2,Sovereign country,Rwanda,RWA,0,Rwanda,RWA,0,Rwanda,RWA,Rwanda,Rwa.,RW,Rwandese Republic,NA,Rwanda,10,10473282,9706,0,RW,RWA,646,RWA,29.91896583707996,-2.013515525878705,RWA,Rwanda,Africa,Africa,Africa,Eastern Africa,Eastern Africa,Sub-Sarahan Africa,South+E Africa,ALM,Sub-Saharan Africa (AFR),"Sub-Saharan Africa, East",24,Southern and East Africa,LDC,other,LLDC
1,1,Admin-0 countries,Western Sahara,SAH,0,2,Disputed,Western Sahara,SAH,0,Western Sahara,SAH,0,Western Sahara,SAH,W. Sahara,W. Sah.,WS,NA,Disputed,Western Sahara,4,NA,900,-99,-99,ESH,-99,ESH,-12.1378311116078,24.29117296020861,SAH,Western Sahara,Africa,Africa,Africa,North Africa,Northern Africa,North Africa,North Africa,ALM,Middle East and North Africa (MEA),North Africa/Middle East,22,North Africa,other,other,other
1,1,Admin-0 countries,Saudi Arabia,SAU,0,2,Sovereign country,Saudi Arabia,SAU,0,Saudi Arabia,SAU,0,Saudi Arabia,SAU,Saudi Arabia,Saud.,SA,Kingdom of Saudi Arabia,NA,Saudi Arabia,7,28686633,576500,0,SA,SAU,682,SAU,44.51636376826474,24.12328983910529,SAU,Saudi Arabia,Asia,Eurasia,West Asia,Arabian Peninsula,Middle East,Middle East,West Asia,ALM,Middle East and North Africa (MEA),North Africa/Middle East,18,Saudi Arabia,other,other,other
1,1,Admin-0 countries,Sudan,SDN,0,2,Sovereign country,Sudan,SDN,0,Sudan,SDN,0,Sudan,SDN,Sudan,Sudan,SD,Republic of the Sudan,NA,Sudan,1,30894000,88080,0,SD,SDN,729,SDN,29.862604012257922,15.990585003116733,SDN,Sudan,Africa,Africa,Africa,North Africa,Eastern Africa,North Africa,North Africa,ALM,Middle East and North Africa (MEA),"Sub-Saharan Africa, East",22,North Africa,LDC,other,other
1,1,Admin-0 countries,South Sudan,SDS,0,2,Sovereign country,South Sudan,SDS,0,South Sudan,SDS,0,South Sudan,SDS,S. Sudan,S. Sud.,SS,Republic of South Sudan,NA,South Sudan,5,8260490,NA,-99,SS,SSD,728,SSD,30.198617582275237,7.292889714818293,SDS,South Sudan,Africa,Africa,Africa,North Africa,Eastern Africa,North Africa,North Africa,ALM,Middle East and North Africa (MEA),"Sub-Saharan Africa, East",22,North Africa,LDC,other,other
1,1,Admin-0 countries,Senegal,SEN,0,2,Sovereign country,Senegal,SEN,0,Senegal,SEN,0,Senegal,SEN,Senegal,Sen.,SN,Republic of Senegal,NA,Senegal,5,13711597,21980,0,SN,SEN,686,SEN,-14.509802785859435,14.354139988452028,SEN,Senegal,Africa,Africa,Africa,Western Africa,Western Africa,Sub-Sarahan Africa,West Africa,ALM,Sub-Saharan Africa (AFR),"Sub-Saharan Africa, West",23,West Africa,LDC,other,other
1,1,Admin-0 countries,Solomon Islands,SLB,0,2,Sovereign country,Solomon Islands,SLB,0,Solomon Islands,SLB,0,Solomon Islands,SLB,Solomon Is.,S. Is.,SB,NA,NA,Solomon Islands,6,595613,1078,0,SB,SLB,90,SLB,159.1024984152817,-7.90210767639019,SLB,Solomon Islands,Australia,Australia,Asia and the Pacific,South Pacific,Oceania,Oceania,Australasia,ASIA,Other Pacific Asia (PAS),Oceania,29,Rest of Australasia,LDC,SID,other
1,1,Admin-0 countries,Sierra Leone,SLE,0,2,Sovereign country,Sierra Leone,SLE,0,Sierra Leone,SLE,0,Sierra Leone,SLE,Sierra Leone,S.L.,SL,Republic of Sierra Leone,NA,Sierra Leone,7,6440053,4285,0,SL,SLE,694,SLE,-11.795257428559944,8.530353726153043,SLE,Sierra Leone,Africa,Africa,Africa,Western Africa,Western Africa,Sub-Sarahan Africa,West Africa,ALM,Sub-Saharan Africa (AFR),"Sub-Saharan Africa, West",23,West Africa,LDC,other,other
1,1,Admin-0 countries,El Salvador,SLV,0,2,Sovereign country,El Salvador,SLV,0,El Salvador,SLV,0,El Salvador,SLV,El Salvador,El. S.,SV,Republic of El Salvador,NA,El Salvador,8,7185218,43630,0,SV,SLV,222,SLV,-88.87290317032377,13.726091625794192,SLV,El Salvador,South America,South America,Latin America and the Caribbean,Meso-America,Rest Central America,Rest of Central Am,Central America,ALM,Latin America and the Caribbean (LAM),"Latin America, Central",27,Central America,other,other,other
1,1,Admin-0 countries,Somaliland,SOL,0,2,Disputed,Somaliland,SOL,0,Somaliland,SOL,0,Somaliland,SOL,Somaliland,Solnd.,SL,Republic of Somaliland,NA,Somaliland,2,3500000,NA,-99,-99,SOL,-99,SOL,46.230747761343494,9.757970293312706,SOL,Somaliland,Africa,Africa,Africa,Eastern Africa,Eastern Africa,Sub-Sarahan Africa,South+E Africa,ALM,Sub-Saharan Africa (AFR),"Sub-Saharan Africa, East",24,Southern and East Africa,other,other,other
1,1,Admin-0 countries,Somalia,SOM,0,2,Sovereign country,Somalia,SOM,0,Somalia,SOM,0,Somalia,SOM,Somalia,Som.,SO,Federal Republic of Somalia,NA,Somalia,7,9832017,5524,0,SO,SOM,706,SOM,45.726700767235656,4.752347756504954,SOM,Somalia,Africa,Africa,Africa,Eastern Africa,Eastern Africa,Sub-Sarahan Africa,South+E Africa,ALM,Sub-Saharan Africa (AFR),"Sub-Saharan Africa, East",24,Southern and East Africa,LDC,other,other
1,1,Admin-0 countries,Republic of Serbia,SRB,0,2,Sovereign country,Republic of Serbia,SRB,0,Republic of Serbia,SRB,0,Republic of Serbia,SRB,Serbia,Serb.,RS,Republic of Serbia,NA,Serbia,10,7379339,80340,0,RS,SRB,688,SRB,20.8196512674302,44.23303720363519,SRB,Republic of Serbia,Europe,Eurasia,Europe,Central Europe,Central Europe,Europe,Europe,REF,Central and Eastern Europe (EEU),"Europe, Central",25,Europe,other,other,other
1,1,Admin-0 countries,Suriname,SUR,0,2,Sovereign country,Suriname,SUR,0,Suriname,SUR,0,Suriname,SUR,Suriname,Sur.,SR,Republic of Suriname,NA,Suriname,6,481267,4254,0,SR,SUR,740,SUR,-55.91145629952074,4.120008031758885,SUR,Suriname,South America,South America,Latin America and the Caribbean,South America,Rest South America,Rest of South Am,South America,ALM,Latin America and the Caribbean (LAM),Caribbean,26,South America,other,SID,other
1,1,Admin-0 countries,Slovakia,SVK,0,2,Sovereign country,Slovakia,SVK,0,Slovakia,SVK,0,Slovakia,SVK,Slovakia,Svk.,SK,Slovak Republic,NA,Slovakia,9,5463046,119500,0,SK,SVK,703,SVK,19.507657147433704,48.726711351727495,SVK,Slovakia,Europe,Eurasia,Europe,Central Europe,Central Europe,Europe,Europe,REF,Central and Eastern Europe (EEU),"Europe, Central",25,Europe,other,other,other
1,1,Admin-0 countries,Slovenia,SVN,0,2,Sovereign country,Slovenia,SVN,0,Slovenia,SVN,0,Slovenia,SVN,Slovenia,Slo.,SLO,Republic of Slovenia,NA,Slovenia,12,2005692,59340,0,SI,SVN,705,SVN,14.93815232079573,46.125422059010376,SVN,Slovenia,Europe,Eurasia,Europe,Central Europe,Central Europe,Europe,Europe,REF,Central and Eastern Europe (EEU),"Europe, Central",25,Europe,other,other,other
1,1,Admin-0 countries,Sweden,SWE,0,2,Sovereign country,Sweden,SWE,0,Sweden,SWE,0,Sweden,SWE,Sweden,Swe.,S,Kingdom of Sweden,NA,Sweden,4,9059651,344300,0,SE,SWE,752,SWE,16.596265846848016,62.81148496808033,SWE,Sweden,Europe,Eurasia,Europe,Western Europe,Western Europe,Europe,Europe,OECD90,Western Europe (WEU),"Europe, Western",25,Europe,other,other,other
1,1,Admin-0 countries,Swaziland,SWZ,0,2,Sovereign country,Swaziland,SWZ,0,Swaziland,SWZ,0,Swaziland,SWZ,Swaziland,Swz.,SZ,Kingdom of Swaziland,NA,Swaziland,5,1123913,5702,0,SZ,SWZ,748,SWZ,31.395255902065326,-26.489855288520012,SWZ,Swaziland,Africa,Africa,Africa,Southern Africa,Southern Africa,Sub-Sarahan Africa,South+E Africa,ALM,Sub-Saharan Africa (AFR),"Sub-Saharan Africa, Southern",24,Southern and East Africa,other,other,LLDC
1,1,Admin-0 countries,Syria,SYR,0,2,Sovereign country,Syria,SYR,0,Syria,SYR,0,Syria,SYR,Syria,Syria,SYR,Syrian Arab Republic,NA,Syria,6,20178485,98830,0,SY,SYR,760,SYR,38.54423941961137,35.012614281129,SYR,Syria,Asia,Eurasia,West Asia,Mashriq,Middle East,Middle East,West Asia,ALM,Middle East and North Africa (MEA),North Africa/Middle East,30,Middle East,other,other,other
1,1,Admin-0 countries,Chad,TCD,0,2,Sovereign country,Chad,TCD,0,Chad,TCD,0,Chad,TCD,Chad,Chad,TD,Republic of Chad,NA,Chad,6,10329208,15860,0,TD,TCD,148,TCD,18.58132952533289,15.328867399839664,TCD,Chad,Africa,Africa,Africa,Central Africa,Western Africa,Sub-Sarahan Africa,West Africa,ALM,Sub-Saharan Africa (AFR),"Sub-Saharan Africa, West",23,West Africa,LDC,other,LLDC
1,1,Admin-0 countries,Togo,TGO,0,2,Sovereign country,Togo,TGO,0,Togo,TGO,0,Togo,TGO,Togo,Togo,TG,Togolese Republic,NA,Togo,5,6019877,5118,0,TG,TGO,768,TGO,0.996403943670358,8.439541954669615,TGO,Togo,Africa,Africa,Africa,Western Africa,Western Africa,Sub-Sarahan Africa,West Africa,ALM,Sub-Saharan Africa (AFR),"Sub-Saharan Africa, West",23,West Africa,LDC,other,other
1,1,Admin-0 countries,Thailand,THA,0,2,Sovereign country,Thailand,THA,0,Thailand,THA,0,Thailand,THA,Thailand,Thai.,TH,Kingdom of Thailand,NA,Thailand,1,65905410,547400,0,TH,THA,764,THA,101.00613354626107,15.016974991416477,THA,Thailand,Asia,Eurasia,Asia and the Pacific,Southeast Asia,Southeastern Asia,South East Asia,East Asia,ASIA,Other Pacific Asia (PAS),"Asia, Southeast",20,Rest of East Asia,other,other,other
1,1,Admin-0 countries,Tajikistan,TJK,0,2,Sovereign country,Tajikistan,TJK,0,Tajikistan,TJK,0,Tajikistan,TJK,Tajikistan,Tjk.,TJ,Republic of Tajikistan,NA,Tajikistan,5,7349145,13160,0,TJ,TJK,762,TJK,71.03443504896109,38.5830814642108,TJK,Tajikistan,Asia,Eurasia,Asia and the Pacific,Central Asia,Asia-Stan,FSU,Central Asia,REF,Newly Independent States of FSU (FSU),"Asia, Central",21,Rest of Central Asia,other,other,LLDC
1,1,Admin-0 countries,Turkmenistan,TKM,0,2,Sovereign country,Turkmenistan,TKM,0,Turkmenistan,TKM,0,Turkmenistan,TKM,Turkmenistan,Turkm.,TM,NA,NA,Turkmenistan,9,4884887,29780,0,TM,TKM,795,TKM,59.27543026236143,39.09124018017582,TKM,Turkmenistan,Asia,Eurasia,Asia and the Pacific,Central Asia,Asia-Stan,FSU,Central Asia,REF,Newly Independent States of FSU (FSU),"Asia, Central",21,Rest of Central Asia,other,other,LLDC
1,1,Admin-0 countries,East Timor,TLS,0,2,Sovereign country,East Timor,TLS,0,East Timor,TLS,0,East Timor,TLS,East Timor,E.T.,TL,East Timor (Timor Leste),NA,East Timor (Timor Leste),3,1131612,2520,0,TL,TLS,626,TLS,125.96630027368401,-8.767760362467005,TLS,East Timor,Asia,Eurasia,Asia and the Pacific,Southeast Asia,Indonesia+,South East Asia,East Asia,ASIA,Other Pacific Asia (PAS),"Asia, Southeast",11,Indonesia,other,other,other
1,1,Admin-0 countries,Trinidad and Tobago,TTO,0,2,Sovereign country,Trinidad and Tobago,TTO,0,Trinidad and Tobago,TTO,0,Trinidad and Tobago,TTO,Trinidad and Tobago,Tr.T.,TT,Republic of Trinidad and Tobago,NA,Trinidad and Tobago,5,1310000,29010,0,TT,TTO,780,TTO,-61.33036691444965,10.428237089201879,TTO,Trinidad and Tobago,South America,South America,Latin America and the Caribbean,Caribbean,Rest Central America,Rest of Central Am,Caribbean,ALM,Latin America and the Caribbean (LAM),Caribbean,28,Caribbean,other,SID,other
1,1,Admin-0 countries,Tunisia,TUN,0,2,Sovereign country,Tunisia,TUN,0,Tunisia,TUN,0,Tunisia,TUN,Tunisia,Tun.,TN,Republic of Tunisia,NA,Tunisia,2,10486339,81710,0,TN,TUN,788,TUN,9.53471612069583,34.17293903688236,TUN,Tunisia,Africa,Africa,Africa,North Africa,Northern Africa,North Africa,North Africa,ALM,Middle East and North Africa (MEA),North Africa/Middle East,22,North Africa,other,other,other
1,1,Admin-0 countries,Turkey,TUR,0,2,Sovereign country,Turkey,TUR,0,Turkey,TUR,0,Turkey,TUR,Turkey,Tur.,TR,Republic of Turkey,NA,Turkey,4,76805524,902700,0,TR,TUR,792,TUR,35.39210245793434,38.99072972795296,TUR,Turkey,Europe,Eurasia,Europe,Central Europe,Turkey,Turkey,Europe,OECD90,Western Europe (WEU),North Africa/Middle East,25,Europe,other,other,other
1,1,Admin-0 countries,Taiwan,TWN,0,2,Sovereign country,Taiwan,TWN,0,Taiwan,TWN,0,Taiwan,TWN,Taiwan,Taiwan,TW,NA,NA,Taiwan,2,22974347,712000,0,TW,TWN,158,TWN,120.97480073748625,23.74096497978493,TWN,Taiwan,Asia,Eurasia,Asia and the Pacific,NW Pacific and East Asia,China+,China,East Asia,ASIA,Other Pacific Asia (PAS),"Asia, East",20,Rest of East Asia,other,other,other
1,1,Admin-0 countries,United Republic of Tanzania,TZA,0,2,Sovereign country,United Republic of Tanzania,TZA,1,Tanzania,TZA,0,Tanzania,TZA,Tanzania,Tanz.,TZ,United Republic of Tanzania,NA,Tanzania,2,41048532,54250,0,TZ,TZA,834,TZA,34.75298813146116,-6.257732720845603,TZA,United Republic of Tanzania,Africa,Africa,Africa,Southern Africa,Southern Africa,Sub-Sarahan Africa,South+E Africa,ALM,Sub-Saharan Africa (AFR),"Sub-Saharan Africa, East",24,Southern and East Africa,LDC,other,other
1,1,Admin-0 countries,Uganda,UGA,0,2,Sovereign country,Uganda,UGA,0,Uganda,UGA,0,Uganda,UGA,Uganda,Uga.,UG,NA,NA,Uganda,4,32369558,39380,0,UG,UGA,800,UGA,32.35754815372395,1.2954869630971209,UGA,Uganda,Africa,Africa,Africa,Eastern Africa,Eastern Africa,Sub-Sarahan Africa,South+E Africa,ALM,Sub-Saharan Africa (AFR),"Sub-Saharan Africa, East",24,Southern and East Africa,LDC,other,LLDC
1,1,Admin-0 countries,Ukraine,UKR,0,2,Sovereign country,Ukraine,UKR,0,Ukraine,UKR,0,Ukraine,UKR,Ukraine,Ukr.,UA,NA,NA,Ukraine,3,45700395,339800,0,UA,UKR,804,UKR,31.369533080356288,48.97301796820209,UKR,Ukraine,Europe,Eurasia,Europe,Eastern Europe,Ukraine+,FSU,Europe,REF,Newly Independent States of FSU (FSU),"Europe, Eastern",25,Europe,other,other,other
1,1,Admin-0 countries,Uruguay,URY,0,2,Sovereign country,Uruguay,URY,0,Uruguay,URY,0,Uruguay,URY,Uruguay,Ury.,UY,Oriental Republic of Uruguay,NA,Uruguay,10,3494382,43160,0,UY,URY,858,URY,-56.00327866654847,-32.78090436523083,URY,Uruguay,South America,South America,Latin America and the Caribbean,South America,Rest South America,Rest of South Am,South America,ALM,Latin America and the Caribbean (LAM),"Latin America, Southern",26,South America,other,other,other
1,1,Admin-0 countries,United States of America,US1,0,2,Country,United States of America,USA,0,United States of America,USA,0,United States of America,USA,United States,U.S.A.,US,United States of America,NA,United States of America,1,307212123,14260000,0,US,USA,840,USA,-99.06024062802132,39.50155412599307,USA,United States of America,North America,North America,North America,US,USA,USA,North America,OECD90,North America (NAM),"North America, High Income",2,US,other,other,other
1,1,Admin-0 countries,Uzbekistan,UZB,0,2,Sovereign country,Uzbekistan,UZB,0,Uzbekistan,UZB,0,Uzbekistan,UZB,Uzbekistan,Uzb.,UZ,Republic of Uzbekistan,NA,Uzbekistan,4,27606007,71670,0,UZ,UZB,860,UZB,63.20363952823173,41.74860266465219,UZB,Uzbekistan,Asia,Eurasia,Asia and the Pacific,Central Asia,Asia-Stan,FSU,Central Asia,REF,Newly Independent States of FSU (FSU),"Asia, Central",21,Rest of Central Asia,other,other,LLDC
1,1,Admin-0 countries,Venezuela,VEN,0,2,Sovereign country,Venezuela,VEN,0,Venezuela,VEN,0,Venezuela,VEN,Venezuela,Ven.,VE,Bolivarian Republic of Venezuela,NA,Venezuela,4,26814843,357400,0,VE,VEN,862,VEN,-66.16382727830239,7.162132267639007,VEN,Venezuela,South America,South America,Latin America and the Caribbean,South America,Rest South America,Rest of South Am,South America,ALM,Latin America and the Caribbean (LAM),"Latin America, Central",26,South America,other,other,other
1,1,Admin-0 countries,Vietnam,VNM,0,2,Sovereign country,Vietnam,VNM,0,Vietnam,VNM,0,Vietnam,VNM,Vietnam,Viet.,VN,Socialist Republic of Vietnam,NA,Vietnam,4,86967524,241700,0,VN,VNM,704,VNM,106.28584079705188,16.65793775325493,VNM,Vietnam,Asia,Eurasia,Asia and the Pacific,Southeast Asia,Southeastern Asia,South East Asia,East Asia,ASIA,Centrally planned Asia and China (CPA),"Asia, Southeast",20,Rest of East Asia,other,other,other
1,1,Admin-0 countries,Vanuatu,VUT,0,2,Sovereign country,Vanuatu,VUT,0,Vanuatu,VUT,0,Vanuatu,VUT,Vanuatu,Van.,VU,Republic of Vanuatu,NA,Vanuatu,3,218519,988.5,0,VU,VUT,548,VUT,166.90722944828877,-15.22334335142897,VUT,Vanuatu,Australia,Australia,Asia and the Pacific,South Pacific,Oceania,Oceania,Australasia,ASIA,Other Pacific Asia (PAS),Oceania,29,Rest of Australasia,LDC,SID,other
1,1,Admin-0 countries,Palestine,PSE,1,2,Country,West Bank,WEB,0,West Bank,WEB,0,West Bank,WEB,West Bank,W.B.,WB,West Bank,NA,West Bank,8,2514845,11950,0,PS,PSE,275,PSE,35.27331962289025,31.94113662241515,PSE,West Bank,Europe,Eurasia,Europe,Western Europe,Middle East,Europe,Europe,ALM,Middle East and North Africa (MEA),"Europe, Western",25,Europe,other,other,other
1,1,Admin-0 countries,Yemen,YEM,0,2,Sovereign country,Yemen,YEM,0,Yemen,YEM,0,Yemen,YEM,Yemen,Yem.,YE,Republic of Yemen,NA,Yemen,11,23822783,55280,0,YE,YEM,887,YEM,47.53504475854349,15.913231950143004,YEM,Yemen,Asia,Eurasia,West Asia,Arabian Peninsula,Middle East,Middle East,West Asia,ALM,Middle East and North Africa (MEA),North Africa/Middle East,30,Middle East,LDC,other,other
1,1,Admin-0 countries,South Africa,ZAF,0,2,Sovereign country,South Africa,ZAF,0,South Africa,ZAF,0,South Africa,ZAF,South Africa,S.Af.,ZA,Republic of South Africa,NA,South Africa,2,49052489,491000,0,ZA,ZAF,710,ZAF,25.11739621239433,-28.962106191124374,ZAF,South Africa,Africa,Africa,Africa,Southern Africa,Southern Africa,Sub-Sarahan Africa,South+E Africa,ALM,Sub-Saharan Africa (AFR),"Sub-Saharan Africa, Southern",5,South Africa,other,other,other
1,1,Admin-0 countries,Zambia,ZMB,0,2,Sovereign country,Zambia,ZMB,0,Zambia,ZMB,0,Zambia,ZMB,Zambia,Zambia,ZM,Republic of Zambia,NA,Zambia,13,11862740,17500,0,ZM,ZMB,894,ZMB,27.727591939982155,-13.395067520057612,ZMB,Zambia,Africa,Africa,Africa,Southern Africa,Southern Africa,Sub-Sarahan Africa,South+E Africa,ALM,Sub-Saharan Africa (AFR),"Sub-Saharan Africa, East",24,Southern and East Africa,LDC,other,LLDC
1,1,Admin-0 countries,Zimbabwe,ZWE,0,2,Sovereign country,Zimbabwe,ZWE,0,Zimbabwe,ZWE,0,Zimbabwe,ZWE,Zimbabwe,Zimb.,ZW,Republic of Zimbabwe,NA,Zimbabwe,9,11392629,1925,0,ZW,ZWE,716,ZWE,29.788548371892528,-18.9069879478588,ZWE,Zimbabwe,Africa,Africa,Africa,Southern Africa,Southern Africa,Sub-Sarahan Africa,South+E Africa,ALM,Sub-Saharan Africa (AFR),"Sub-Saharan Africa, Southern",24,Southern and East Africa,other,other,LLDC
3,3,Admin-0 countries,Netherlands,NL1,1,2,Country,Aruba,ABW,0,Aruba,ABW,0,Aruba,ABW,Aruba,Aruba,AW,NA,Neth.,Aruba,9,103065,2258,0,AW,ABW,533,ABW,-69.98267466267893,12.520888807639498,ABW,Aruba,South America,South America,Latin America and the Caribbean,Caribbean,Rest Central America,Rest of Central Am,Caribbean,ALM,Latin America and the Caribbean (LAM),Caribbean,28,Caribbean,other,SID,other
1,1,Admin-0 countries,United Kingdom,GB1,1,2,Dependency,Anguilla,AIA,0,Anguilla,AIA,0,Anguilla,AIA,Anguilla,Ang.,AI,NA,U.K.,Anguilla,3,14436,108.9,0,AI,AIA,660,AIA,-63.06498463657857,18.22396692014262,AIA,Anguilla,South America,South America,Latin America and the Caribbean,Caribbean,Rest Central America,Rest of Central Am,Caribbean,ALM,Latin America and the Caribbean (LAM),Caribbean,28,Caribbean,other,SID,other
3,3,Admin-0 countries,Finland,FI1,1,2,Country,Aland,ALD,0,Aland,ALD,0,Aland,ALD,Aland,Aland,AI,Eland Islands,Fin.,Aland,6,27153,NA,-99,-99,ALA,248,ALA,19.943992364418936,60.23134323252582,ALA,Aland,Europe,Eurasia,Europe,Western Europe,Western Europe,Europe,Europe,OECD90,Western Europe (WEU),"Europe, Western",25,Europe,other,other,other
3,3,Admin-0 countries,Andorra,AND,0,2,Sovereign country,Andorra,AND,0,Andorra,AND,0,Andorra,AND,Andorra,And.,AND,Principality of Andorra,NA,Andorra,8,83888,3660,0,AD,AND,20,AND,1.5605336813870103,42.542291743857554,AND,Andorra,Europe,Eurasia,Europe,Western Europe,Western Europe,Europe,Europe,OECD90,Western Europe (WEU),"Europe, Western",25,Europe,other,other,other
3,3,Admin-0 countries,United States of America,US1,1,2,Dependency,American Samoa,ASM,0,American Samoa,ASM,0,American Samoa,ASM,American Samoa,Am. Samoa,AS,Territory of American Samoa,U.S.A.,American Samoa,1,65628,575.3,0,AS,ASM,16,ASM,-170.718018603403,-14.304489224471222,ASM,American Samoa,Australia,Australia,Asia and the Pacific,South Pacific,Oceania,Oceania,Australasia,ASIA,Other Pacific Asia (PAS),Oceania,29,Rest of Australasia,other,SID,other
5,5,Admin-0 countries,Australia,AU1,1,2,Dependency,Ashmore and Cartier Islands,ATC,0,Ashmore and Cartier Islands,ATC,0,Ashmore and Cartier Islands,ATC,Ashmore and Cartier Is.,A.C.Is.,AU,Territory of Ashmore and Cartier Islands,NA,Ashmore and Cartier Islands,7,0,0,0,AU,Ashm,36,Ashm,123.58383039520744,-12.429942549547714,Ashm,Ashmore and Cartier Islands,Australia,Australia,Asia and the Pacific,Australia and New Zealand,Oceania,Oceania,Australasia,OECD90,Pacific OECD (PAO),Australasia,10,Australia,other,other,other
1,1,Admin-0 countries,Antigua and Barbuda,ATG,0,2,Sovereign country,Antigua and Barbuda,ATG,0,Antigua and Barbuda,ATG,0,Antigua and Barbuda,ATG,Antigua and Barb.,Ant.B.,AG,NA,NA,Antigua and Barbuda,5,85632,1657,0,AG,ATG,28,ATG,-61.78996997469583,17.07776975800017,ATG,Antigua and Barbuda,South America,South America,Latin America and the Caribbean,Caribbean,Rest Central America,Rest of Central Am,Caribbean,ALM,Latin America and the Caribbean (LAM),Caribbean,28,Caribbean,other,SID,other
1,1,Admin-0 countries,Bahrain,BHR,0,2,Sovereign country,Bahrain,BHR,0,Bahrain,BHR,0,Bahrain,BHR,Bahrain,Bahr.,BH,State of Bahrain,NA,Bahrain,9,727785,26820,0,BH,BHR,48,BHR,50.54197759457167,26.04200844754386,BHR,Bahrain,Asia,Eurasia,West Asia,Arabian Peninsula,Middle East,Middle East,West Asia,ALM,Middle East and North Africa (MEA),North Africa/Middle East,30,Middle East,other,SID,other
3,3,Admin-0 countries,France,FR1,1,2,Dependency,Saint Barthelemy,BLM,0,Saint Barthelemy,BLM,0,Saint Barthelemy,BLM,St. Barthelemy,St. B.,BL,NA,Fr.,Saint Barthelemy,11,7448,255,0,BL,BLM,652,BLM,-62.84068712186312,17.898810446765406,BLM,Saint Barthelemy,Europe,Eurasia,Europe,Western Europe,Western Europe,Europe,Europe,OECD90,Western Europe (WEU),"Europe, Western",14,France,other,other,other
3,3,Admin-0 countries,United Kingdom,GB1,1,2,Dependency,Bermuda,BMU,0,Bermuda,BMU,0,Bermuda,BMU,Bermuda,Berm.,BM,NA,U.K.,Bermuda,3,67837,4500,0,BM,BMU,60,BMU,-64.7545418561635,32.31368594099935,BMU,Bermuda,South America,South America,Latin America and the Caribbean,Caribbean,Rest Central America,Rest of Central Am,Caribbean,ALM,Latin America and the Caribbean (LAM),Caribbean,28,Caribbean,other,other,other
1,1,Admin-0 countries,Barbados,BRB,0,2,Sovereign country,Barbados,BRB,0,Barbados,BRB,0,Barbados,BRB,Barbados,Barb.,BB,NA,NA,Barbados,3,284589,5425,0,BB,BRB,52,BRB,-59.55980197570839,13.181453712112038,BRB,Barbados,South America,South America,Latin America and the Caribbean,Caribbean,Rest Central America,Rest of Central Am,Caribbean,ALM,Latin America and the Caribbean (LAM),Caribbean,28,Caribbean,other,SID,other
3,3,Admin-0 countries,New Zealand,NZ1,1,2,Dependency,Cook Islands,COK,0,Cook Islands,COK,0,Cook Islands,COK,Cook Is.,Cook Is.,CK,NA,Assoc. with N.Z.,Cook Islands,4,11870,183.2,0,CK,COK,184,COK,-159.7872415008454,-21.219268125893162,COK,Cook Islands,Australia,Australia,Asia and the Pacific,South Pacific,Oceania,Oceania,Australasia,ASIA,Other Pacific Asia (PAS),Oceania,29,Rest of Australasia,other,SID,other
1,1,Admin-0 countries,Comoros,COM,0,2,Sovereign country,Comoros,COM,0,Comoros,COM,0,Comoros,COM,Comoros,Com.,KM,Federal Islamic Republic of the Comoros,NA,Comoros,10,752438,751.2,0,KM,COM,174,COM,43.33914193773067,-11.65439261026011,COM,Comoros,Africa,Africa,Africa,Western Indian Ocean,Eastern Africa,Sub-Sarahan Africa,South+E Africa,ALM,Sub-Saharan Africa (AFR),"Sub-Saharan Africa, East",24,Southern and East Africa,LDC,SID,other
1,1,Admin-0 countries,Cape Verde,CPV,0,2,Sovereign country,Cape Verde,CPV,0,Cape Verde,CPV,0,Cape Verde,CPV,Cape Verde,C.Vd.,CV,Republic of Cape Verde,NA,Cape Verde,11,429474,1626,0,CV,CPV,132,CPV,-23.637140100392493,15.08239191365131,CPV,Cape Verde,Africa,Africa,Africa,Central Africa,Western Africa,Sub-Sarahan Africa,West Africa,ALM,Sub-Saharan Africa (AFR),"Sub-Saharan Africa, West",23,West Africa,other,SID,other
3,3,Admin-0 countries,Netherlands,NL1,1,2,Country,Curacao,CUW,0,Curacao,CUW,0,Curacao,CUW,Curacao,Cur.,CW,NA,Neth.,Curacao,9,141766,2.91,0,CW,CUW,531,CUW,-68.97122249721136,12.195524429190815,CUW,Curacao,South America,South America,Latin America and the Caribbean,Caribbean,Rest Central America,Rest of Central Am,Caribbean,ALM,Latin America and the Caribbean (LAM),Caribbean,28,Caribbean,other,other,other
1,1,Admin-0 countries,United Kingdom,GB1,1,2,Dependency,Cayman Islands,CYM,0,Cayman Islands,CYM,0,Cayman Islands,CYM,Cayman Is.,Cym. Is.,KY,NA,U.K.,Cayman Islands,3,49035,1939,0,KY,CYM,136,CYM,-81.28502859027445,19.320874201601473,CYM,Cayman Islands,South America,South America,Latin America and the Caribbean,Caribbean,Rest Central America,Rest of Central Am,Caribbean,ALM,Latin America and the Caribbean (LAM),Caribbean,28,Caribbean,other,other,other
1,1,Admin-0 countries,Dominica,DMA,0,2,Sovereign country,Dominica,DMA,0,Dominica,DMA,0,Dominica,DMA,Dominica,D'inca,DM,Commonwealth of Dominica,NA,Dominica,12,72660,719.6,0,DM,DMA,212,DMA,-61.35773122057206,15.43947211043042,DMA,Dominica,South America,South America,Latin America and the Caribbean,Caribbean,Rest Central America,Rest of Central Am,Caribbean,ALM,Latin America and the Caribbean (LAM),Caribbean,28,Caribbean,other,SID,other
3,3,Admin-0 countries,Denmark,DN1,1,2,Dependency,Faroe Islands,FRO,0,Faroe Islands,FRO,0,Faroe Islands,FRO,Faroe Is.,Faroe Is.,FO,Fxoroyar (Faroe Is.),Den.,Faroe Islands,12,48856,1000,0,FO,FRO,234,FRO,-6.884745851637346,62.17017783028254,FRO,Faroe Islands,Europe,Eurasia,Europe,Western Europe,Western Europe,Europe,Europe,OECD90,Western Europe (WEU),"Europe, Western",25,Europe,other,other,other
3,3,Admin-0 countries,Federated States of Micronesia,FSM,0,2,Sovereign country,Federated States of Micronesia,FSM,0,Federated States of Micronesia,FSM,0,Federated States of Micronesia,FSM,Micronesia,F.S.M.,FSM,Federated States of Micronesia,NA,"Micronesia, Federated States of",13,107434,238.1,0,FM,FSM,583,FSM,158.2325060129713,6.885856028684995,FSM,Federated States of Micronesia,Australia,Australia,Asia and the Pacific,South Pacific,Oceania,Oceania,Australasia,ASIA,Other Pacific Asia (PAS),Oceania,29,Rest of Australasia,other,SID,other
1,1,Admin-0 countries,Palestine,PSE,1,2,Country,Gaza,GAZ,0,Gaza,GAZ,0,Gaza,GAZ,Gaza,Gaza,GZ,Gaza Strip,NA,Gaza Strip,8,1604238,0.77,0,PS,Gaza,275,Gaza,34.347571192438764,31.39150352983017,Gaza,Gaza,Europe,Eurasia,Europe,Western Europe,Middle East,Europe,Europe,ALM,Middle East and North Africa (MEA),"Europe, Western",25,Europe,other,other,other
4,4,Admin-0 countries,United Kingdom,GB1,1,2,Country,Guernsey,GGY,0,Guernsey,GGY,0,Guernsey,GGY,Guernsey,Guern.,GG,Bailiwick of Guernsey,Crown dependency of U.K.,Guernsey,3,65870,2742,0,GG,GGY,831,GGY,-2.5724015787155583,49.46809855268912,GGY,Guernsey,Europe,Eurasia,Europe,Western Europe,Western Europe,Europe,Europe,OECD90,Western Europe (WEU),"Europe, Western",13,UK,other,other,other
1,1,Admin-0 countries,Grenada,GRD,0,2,Sovereign country,Grenada,GRD,0,Grenada,GRD,0,Grenada,GRD,Grenada,Gren.,GD,NA,NA,Grenada,6,90739,1161,0,GD,GRD,308,GRD,-61.68219414563544,12.117255497990119,GRD,Grenada,South America,South America,Latin America and the Caribbean,Caribbean,Rest Central America,Rest of Central Am,Caribbean,ALM,Latin America and the Caribbean (LAM),Caribbean,28,Caribbean,other,SID,other
3,3,Admin-0 countries,United States of America,US1,1,2,Dependency,Guam,GUM,0,Guam,GUM,0,Guam,GUM,Guam,Guam,GU,Territory of Guam,U.S.A.,Guam,1,178430,2500,0,GU,GUM,316,GUM,144.76792243083986,13.44166549939634,GUM,Guam,Australia,Australia,Asia and the Pacific,South Pacific,Oceania,Oceania,Australasia,ASIA,Other Pacific Asia (PAS),Oceania,29,Rest of Australasia,other,SID,other
3,3,Admin-0 countries,China,CH1,1,2,Country,Hong Kong S.A.R.,HKG,0,Hong Kong S.A.R.,HKG,0,Hong Kong S.A.R.,HKG,Hong Kong,H.K.,HK,Hong Kong Special Administrative Region,China,Hong Kong S.A.R.,3,7055071,306600,0,HK,HKG,344,HKG,114.13918132298909,22.439183890236187,HKG,Hong Kong S.A.R.,Asia,Eurasia,Asia and the Pacific,NW Pacific and East Asia,Korea,China,East Asia,ASIA,Other Pacific Asia (PAS),"Asia Pacific, High Income",12,China,other,other,other
5,5,Admin-0 countries,Australia,AU1,1,2,Dependency,Heard Island and McDonald Islands,HMD,0,Heard Island and McDonald Islands,HMD,0,Heard Island and McDonald Islands,HMD,Heard I. and McDonald Is.,H.M.Is.,HM,Territory of Heard Island and McDonald Islands,Auz.,Heard Island and McDonald Islands,7,0,0,0,HM,HMD,334,HMD,73.52052712327325,-53.08725300947415,HMD,Heard Island and McDonald Islands,NA,NA,NA,NA,NA,NA,NA,NA,NA,NA,NA,NA,NA,NA,NA
3,3,Admin-0 countries,United Kingdom,GB1,1,2,Country,Isle of Man,IMN,0,Isle of Man,IMN,0,Isle of Man,IMN,Isle of Man,IoMan,IM,NA,Crown dependency of U.K.,Isle of Man,3,76512,2719,0,IM,IMN,833,IMN,-4.538738219251967,54.224196495916154,IMN,Isle of Man,Europe,Eurasia,Europe,Western Europe,Western Europe,Europe,Europe,OECD90,Western Europe (WEU),"Europe, Western",13,UK,other,other,other
5,5,Admin-0 countries,Australia,AU1,1,2,Dependency,Indian Ocean Territories,IOA,0,Indian Ocean Territories,IOA,0,Indian Ocean Territories,IOA,Indian Ocean Ter.,Ind. Oc. Ter.,IOT,NA,Auz.,Indian Ocean Territories,7,4000,0,-99,-99,IOA,-99,IOA,105.66236684700371,-10.49268263939702,IOA,Indian Ocean Territories,Australia,Australia,Asia and the Pacific,Australia and New Zealand,Oceania,Oceania,Australasia,OECD90,Pacific OECD (PAO),Australasia,10,Australia,other,other,other
3,3,Admin-0 countries,United Kingdom,GB1,1,2,Dependency,British Indian Ocean Territory,IOT,0,British Indian Ocean Territory,IOT,0,British Indian Ocean Territory,IOT,Br. Indian Ocean Ter.,I.O.T.,IO,NA,U.K.,British Indian Ocean Territory,3,4000,NA,0,IO,IOT,86,IOT,72.44540238951839,-7.33058251083761,IOT,British Indian Ocean Territory,Europe,Eurasia,Europe,Western Europe,Western Europe,Europe,Europe,OECD90,Western Europe (WEU),"Europe, Western",13,UK,other,other,other
4,4,Admin-0 countries,United Kingdom,GB1,1,2,Country,Jersey,JEY,0,Jersey,JEY,0,Jersey,JEY,Jersey,Jey.,JE,Bailiwick of Jersey,Crown dependency of U.K.,Jersey,3,91626,5100,0,JE,JEY,832,JEY,-2.1268765480586667,49.2183748817394,JEY,Jersey,Europe,Eurasia,Europe,Western Europe,Western Europe,Europe,Europe,OECD90,Western Europe (WEU),"Europe, Western",13,UK,other,other,other
1,1,Admin-0 countries,Kashmir,KAS,1,2,Indeterminate,Siachen Glacier,KAS,0,Siachen Glacier,KAS,0,Siachen Glacier,KAS,NA,NA,NA,NA,NA,Kashmir,0,6000,0,-99,-99,KAS,-99,KAS,77.1801128668646,35.392366189374414,KAS,Siachen Glacier,Asia,Eurasia,Asia and the Pacific,South Asia,India+,India,South Asia,ASIA,South Asia (SAS),"Asia, South",6,India,other,other,other
1,1,Admin-0 countries,Kiribati,KIR,0,2,Sovereign country,Kiribati,KIR,0,Kiribati,KIR,0,Kiribati,KIR,Kiribati,Kir.,KI,Republic of Kiribati,NA,Kiribati,12,112850,579.5,0,KI,KIR,296,KIR,-157.37418626997837,1.8544478018642299,KIR,Kiribati,Australia,Australia,Asia and the Pacific,South Pacific,Oceania,Oceania,Australasia,ASIA,Other Pacific Asia (PAS),Oceania,29,Rest of Australasia,LDC,SID,other
1,1,Admin-0 countries,Saint Kitts and Nevis,KNA,0,2,Sovereign country,Saint Kitts and Nevis,KNA,0,Saint Kitts and Nevis,KNA,0,Saint Kitts and Nevis,KNA,St. Kitts and Nevis,St.K.N.,KN,Federation of Saint Kitts and Nevis,NA,Saint Kitts and Nevis,8,40131,777.7,0,KN,KNA,659,KNA,-62.74761420997525,17.32688847637615,KNA,Saint Kitts and Nevis,South America,South America,Latin America and the Caribbean,Caribbean,Rest Central America,Rest of Central Am,Caribbean,ALM,Latin America and the Caribbean (LAM),Caribbean,28,Caribbean,other,SID,other
1,1,Admin-0 countries,Saint Lucia,LCA,0,2,Sovereign country,Saint Lucia,LCA,0,Saint Lucia,LCA,0,Saint Lucia,LCA,Saint Lucia,S.L.,LC,NA,NA,Saint Lucia,4,160267,1778,0,LC,LCA,662,LCA,-60.96969329305246,13.89478369888569,LCA,Saint Lucia,South America,South America,Latin America and the Caribbean,Caribbean,Rest Central America,Rest of Central Am,Caribbean,ALM,Latin America and the Caribbean (LAM),Caribbean,28,Caribbean,other,SID,other
1,1,Admin-0 countries,Liechtenstein,LIE,0,2,Sovereign country,Liechtenstein,LIE,0,Liechtenstein,LIE,0,Liechtenstein,LIE,Liechtenstein,Liech.,FL,Principality of Liechtenstein,NA,Liechtenstein,9,34761,4160,0,LI,LIE,438,LIE,9.535735935889317,47.13665446750587,LIE,Liechtenstein,Europe,Eurasia,Europe,Western Europe,Western Europe,Europe,Europe,OECD90,Western Europe (WEU),"Europe, Western",25,Europe,other,other,other
3,3,Admin-0 countries,China,CH1,1,2,Country,Macau S.A.R,MAC,0,Macau S.A.R,MAC,0,Macau S.A.R,MAC,Macau,Mac.,MO,Macau Special Administrative Region,China,Macau S.A.R,3,559846,18140,0,MO,MAC,446,MAC,113.50933101765571,22.223108071002162,MAC,Macau S.A.R,Asia,Eurasia,Asia and the Pacific,NW Pacific and East Asia,China+,China,East Asia,ASIA,Centrally planned Asia and China (CPA),"Asia, East",1,China,other,other,other
3,3,Admin-0 countries,France,FR1,1,2,Dependency,Saint Martin,MAF,0,Saint Martin,MAF,0,Saint Martin,MAF,St. Martin,St. M.,MF,NA,Fr.,Saint Martin,11,29820,0,0,MF,MAF,663,MAF,-63.05971622979738,18.088893306011077,MAF,Saint Martin,Europe,Eurasia,Europe,Western Europe,Western Europe,Europe,Europe,OECD90,Western Europe (WEU),"Europe, Western",14,France,other,other,other
6,6,Admin-0 countries,Monaco,MCO,0,2,Sovereign country,Monaco,MCO,0,Monaco,MCO,0,Monaco,MCO,Monaco,Mco.,MC,Principality of Monaco,NA,Monaco,12,32965,976.3,0,MC,MCO,492,MCO,7.406280548550209,43.75276115106826,MCO,Monaco,Europe,Eurasia,Europe,Western Europe,Western Europe,Europe,Europe,OECD90,Western Europe (WEU),"Europe, Western",25,Europe,other,other,other
3,3,Admin-0 countries,Maldives,MDV,0,2,Sovereign country,Maldives,MDV,0,Maldives,MDV,0,Maldives,MDV,Maldives,Mald.,MV,Republic of Maldives,NA,Maldives,7,396334,1716,0,MV,MDV,462,MDV,73.4108974789595,3.2607542115428134,MDV,Maldives,Asia,Eurasia,Asia and the Pacific,South Asia,India+,Rest of South Asia,South Asia,ASIA,South Asia (SAS),"Asia, Southeast",19,Rest of South Asia,LDC,SID,other
5,5,Admin-0 countries,Marshall Islands,MHL,0,2,Sovereign country,Marshall Islands,MHL,0,Marshall Islands,MHL,0,Marshall Islands,MHL,Marshall Is.,M. Is.,MH,Republic of the Marshall Islands,NA,Marshall Islands,3,64522,133.5,0,MH,MHL,584,MHL,171.18634056180417,7.105935968419224,MHL,Marshall Islands,Australia,Australia,Asia and the Pacific,South Pacific,Oceania,Oceania,Australasia,ASIA,Other Pacific Asia (PAS),Oceania,29,Rest of Australasia,other,SID,other
3,3,Admin-0 countries,Malta,MLT,0,2,Sovereign country,Malta,MLT,0,Malta,MLT,0,Malta,MLT,Malta,Malta,M,Republic of Malta,NA,Malta,8,405165,9962,0,MT,MLT,470,MLT,14.443277811226201,35.8900277985409,MLT,Malta,Europe,Eurasia,Europe,Western Europe,Central Europe,Europe,Europe,OECD90,Western Europe (WEU),"Europe, Western",25,Europe,other,other,other
3,3,Admin-0 countries,United States of America,US1,1,2,Dependency,Northern Mariana Islands,MNP,0,Northern Mariana Islands,MNP,0,Northern Mariana Islands,MNP,N. Mariana Is.,N.M.I.,MP,Commonwealth of the Northern Mariana Islands,Commonwealth of U.S.A.,"Mariana Islands, Northern",1,88662,900,0,MP,MNP,580,MNP,145.7437161681533,15.18094108053003,MNP,Northern Mariana Islands,Australia,Australia,Asia and the Pacific,South Pacific,Oceania,Oceania,Australasia,ASIA,Other Pacific Asia (PAS),Oceania,29,Rest of Australasia,other,SID,other
3,3,Admin-0 countries,United Kingdom,GB1,1,2,Dependency,Montserrat,MSR,0,Montserrat,MSR,0,Montserrat,MSR,Montserrat,Monts.,MS,NA,U.K.,Montserrat,3,5097,29,0,MS,MSR,500,MSR,-62.18519806624821,16.73941361219867,MSR,Montserrat,South America,South America,Latin America and the Caribbean,Caribbean,Rest Central America,Rest of Central Am,Caribbean,ALM,Latin America and the Caribbean (LAM),Caribbean,28,Caribbean,other,SID,other
1,1,Admin-0 countries,Mauritius,MUS,0,2,Sovereign country,Mauritius,MUS,0,Mauritius,MUS,0,Mauritius,MUS,Mauritius,Mus.,MU,Republic of Mauritius,NA,Mauritius,7,1284264,15270,0,MU,MUS,480,MUS,57.571207575143454,-20.277715600025235,MUS,Mauritius,Africa,Africa,Africa,Western Indian Ocean,Eastern Africa,Sub-Sarahan Africa,South+E Africa,ALM,Sub-Saharan Africa (AFR),"Asia, Southeast",24,Southern and East Africa,other,SID,other
5,5,Admin-0 countries,Australia,AU1,1,2,Dependency,Norfolk Island,NFK,0,Norfolk Island,NFK,0,Norfolk Island,NFK,Norfolk Island,Nfk. I.,NF,Territory of Norfolk Island,Auz.,Norfolk Island,7,2141,0,0,NF,NFK,574,NFK,167.94920199046936,-29.05143845042552,NFK,Norfolk Island,Australia,Australia,Asia and the Pacific,South Pacific,Oceania,Oceania,Australasia,ASIA,Other Pacific Asia (PAS),Oceania,29,Rest of Australasia,other,other,other
3,3,Admin-0 countries,New Zealand,NZ1,1,2,Dependency,Niue,NIU,0,Niue,NIU,0,Niue,NIU,Niue,Niue,NU,NA,Assoc. with N.Z.,Niue,4,1398,10.01,0,NU,NIU,570,NIU,-169.8699536982353,-19.049462296127363,NIU,Niue,Australia,Australia,Asia and the Pacific,South Pacific,Oceania,Oceania,Australasia,ASIA,Other Pacific Asia (PAS),Oceania,29,Rest of Australasia,other,SID,other
3,3,Admin-0 countries,Nauru,NRU,0,2,Sovereign country,Nauru,NRU,0,Nauru,NRU,0,Nauru,NRU,Nauru,Nauru,NR,Republic of Nauru,NA,Nauru,9,14019,60,0,NR,NRU,520,NRU,166.93258517011117,-0.5191419932577604,NRU,Nauru,Australia,Australia,Asia and the Pacific,South Pacific,Oceania,Oceania,Australasia,ASIA,Other Pacific Asia (PAS),Oceania,29,Rest of Australasia,other,SID,other
3,3,Admin-0 countries,United Kingdom,GB1,1,2,Dependency,Pitcairn Islands,PCN,0,Pitcairn Islands,PCN,0,Pitcairn Islands,PCN,Pitcairn Is.,Pit. Is.,PN,"Pitcairn, Henderson, Ducie and Oeno Islands",U.K.,Pitcairn Islands,3,48,0,0,PN,PCN,612,PCN,-128.31704093437634,-24.364985952160072,PCN,Pitcairn Islands,Australia,Australia,Asia and the Pacific,South Pacific,Oceania,Oceania,Australasia,ASIA,Other Pacific Asia (PAS),Oceania,29,Rest of Australasia,other,other,other
1,1,Admin-0 countries,Palau,PLW,0,2,Sovereign country,Palau,PLW,0,Palau,PLW,0,Palau,PLW,Palau,Palau,PW,Republic of Palau,NA,Palau,12,20796,164,0,PW,PLW,585,PLW,134.58050047581318,7.5129809546619315,PLW,Palau,Australia,Australia,Asia and the Pacific,South Pacific,Oceania,Oceania,Australasia,ASIA,Other Pacific Asia (PAS),Oceania,29,Rest of Australasia,other,SID,other
3,3,Admin-0 countries,France,FR1,1,2,Dependency,French Polynesia,PYF,0,French Polynesia,PYF,0,French Polynesia,PYF,Fr. Polynesia,Fr. Poly.,PF,Territory of French Polynesia,Fr.,French Polynesia,11,287032,4718,0,PF,PYF,258,PYF,-149.42024633492022,-17.66331531542536,PYF,French Polynesia,Australia,Australia,Asia and the Pacific,South Pacific,Oceania,Oceania,Australasia,ASIA,Other Pacific Asia (PAS),Oceania,29,Rest of Australasia,other,SID,other
3,3,Admin-0 countries,Singapore,SGP,0,2,Sovereign country,Singapore,SGP,0,Singapore,SGP,0,Singapore,SGP,Singapore,Sing.,SG,Republic of Singapore,NA,Singapore,3,4657542,237300,0,SG,SGP,702,SGP,103.81725320311939,1.358770661263702,SGP,Singapore,Asia,Eurasia,Asia and the Pacific,Southeast Asia,Southeastern Asia,South East Asia,East Asia,ASIA,Other Pacific Asia (PAS),"Asia Pacific, High Income",20,Rest of East Asia,other,SID,other
3,3,Admin-0 countries,United Kingdom,GB1,1,2,Dependency,South Georgia and South Sandwich Islands,SGS,0,South Georgia and South Sandwich Islands,SGS,0,South Georgia and South Sandwich Islands,SGS,S. Geo. and S. Sandw. Is.,S.G. S.S. Is.,GS,South Georgia and South Sandwich Islands,U.K.,South Georgia and the Islands,3,10,0,0,GS,SGS,239,SGS,-36.68902429813066,-54.36444117230301,SGS,South Georgia and South Sandwich Islands,Europe,Eurasia,Europe,Western Europe,Western Europe,Europe,Europe,OECD90,Western Europe (WEU),"Europe, Western",13,UK,other,other,other
3,3,Admin-0 countries,United Kingdom,GB1,1,2,Dependency,Saint Helena,SHN,0,Saint Helena,SHN,0,Saint Helena,SHN,Saint Helena,St.H.,SH,NA,U.K.,Saint Helena,3,7637,18,0,SH,SHN,654,SHN,-5.716196812207585,-15.958901950458612,SHN,Saint Helena,Africa,Africa,Africa,Southern Africa,Southern Africa,Sub-Sarahan Africa,South+E Africa,ALM,Sub-Saharan Africa (AFR),"Sub-Saharan Africa, Southern",24,Southern and East Africa,other,other,other
3,3,Admin-0 countries,San Marino,SMR,0,2,Sovereign country,San Marino,SMR,0,San Marino,SMR,0,San Marino,SMR,San Marino,S.M.,RSM,Republic of San Marino,NA,San Marino,6,30324,1662,0,SM,SMR,674,SMR,12.459230288504193,43.94186938911381,SMR,San Marino,Europe,Eurasia,Europe,Western Europe,Western Europe,Europe,Europe,OECD90,Western Europe (WEU),"Europe, Western",15,Italy,other,other,other
3,3,Admin-0 countries,France,FR1,1,2,Dependency,Saint Pierre and Miquelon,SPM,0,Saint Pierre and Miquelon,SPM,0,Saint Pierre and Miquelon,SPM,St. Pierre and Miquelon,St. P.M.,PM,Territorial Collectivity of Saint Pierre and Miquelon,Fr.,Saint Pierre and Miquelon,11,7051,48.3,0,PM,SPM,666,SPM,-56.326952252027155,46.9461572292346,SPM,Saint Pierre and Miquelon,North America,North America,North America,Canada,USA,Canada,North America,OECD90,North America (NAM),"North America, High Income",9,Canada,other,other,other
1,1,Admin-0 countries,Sao Tome and Principe,STP,0,2,Sovereign country,Sao Tome and Principe,STP,0,Sao Tome and Principe,STP,0,Sao Tome and Principe,STP,Sao Tome and Principe,S.T.P.,ST,Democratic Republic of Sao Tome and Principe,NA,Sao Tome and Principe,7,212679,276.5,0,ST,STP,678,STP,6.606597650208316,0.23811822218107245,STP,Sao Tome and Principe,Africa,Africa,Africa,Central Africa,Western Africa,Sub-Sarahan Africa,West Africa,ALM,Sub-Saharan Africa (AFR),"Sub-Saharan Africa, West",23,West Africa,LDC,SID,other
3,3,Admin-0 countries,Netherlands,NL1,1,2,Country,Sint Maarten,SXM,0,Sint Maarten,SXM,0,Sint Maarten,SXM,Sint Maarten,St. M.,SX,NA,Neth.,Netherlands Antilles,9,37429,400,0,SX,SXM,534,SXM,-63.05713282453909,18.05081812878225,SXM,Sint Maarten,Europe,Eurasia,Europe,Western Europe,Western Europe,Europe,Europe,OECD90,Western Europe (WEU),"Europe, Western",25,Europe,other,other,other
1,1,Admin-0 countries,Seychelles,SYC,0,2,Sovereign country,Seychelles,SYC,0,Seychelles,SYC,0,Seychelles,SYC,Seychelles,Syc.,SC,Republic of Seychelles,NA,Seychelles,1,87476,1715,0,SC,SYC,690,SYC,55.47601997302524,-4.660978209540323,SYC,Seychelles,Africa,Africa,Africa,Western Indian Ocean,Eastern Africa,Sub-Sarahan Africa,South+E Africa,ALM,Sub-Saharan Africa (AFR),"Asia, Southeast",24,Southern and East Africa,other,SID,other
3,3,Admin-0 countries,United Kingdom,GB1,1,2,Dependency,Turks and Caicos Islands,TCA,0,Turks and Caicos Islands,TCA,0,Turks and Caicos Islands,TCA,Turks and Caicos Is.,T.C. Is.,TC,NA,U.K.,Turks and Caicos Islands,3,22942,216,0,TC,TCA,796,TCA,-71.74139945372735,21.81169540126582,TCA,Turks and Caicos Islands,South America,South America,Latin America and the Caribbean,Caribbean,Rest Central America,Rest of Central Am,Caribbean,ALM,Latin America and the Caribbean (LAM),Caribbean,28,Caribbean,other,other,other
3,3,Admin-0 countries,Tonga,TON,0,2,Sovereign country,Tonga,TON,0,Tonga,TON,0,Tonga,TON,Tonga,Tongo,TO,Kingdom of Tonga,NA,Tonga,8,120898,549,0,TO,TON,776,TON,-175.2171179621246,-21.166622414990634,TON,Tonga,Australia,Australia,Asia and the Pacific,South Pacific,Oceania,Oceania,Australasia,ASIA,Other Pacific Asia (PAS),Oceania,29,Rest of Australasia,other,SID,other
6,6,Admin-0 countries,Vatican,VAT,0,2,Sovereign country,Vatican,VAT,0,Vatican,VAT,0,Vatican,VAT,Vatican,Vat.,V,State of the Vatican City,NA,Vatican (Holy Sea),2,826,NA,0,VA,VAT,336,VAT,12.43386254501069,41.901740970204,VAT,Vatican,Europe,Eurasia,Europe,Western Europe,Western Europe,Europe,Europe,OECD90,Western Europe (WEU),"Europe, Western",15,Italy,other,other,other
1,1,Admin-0 countries,Saint Vincent and the Grenadines,VCT,0,2,Sovereign country,Saint Vincent and the Grenadines,VCT,0,Saint Vincent and the Grenadines,VCT,0,Saint Vincent and the Grenadines,VCT,St. Vin. and Gren.,St.V.G.,VC,NA,NA,Saint Vincent and the Grenadines,7,104574,1070,0,VC,VCT,670,VCT,-61.195757613567096,13.254117430812567,VCT,Saint Vincent and the Grenadines,South America,South America,Latin America and the Caribbean,Caribbean,Rest Central America,Rest of Central Am,Caribbean,ALM,Latin America and the Caribbean (LAM),Caribbean,28,Caribbean,other,SID,other
3,3,Admin-0 countries,United Kingdom,GB1,1,2,Dependency,British Virgin Islands,VGB,0,British Virgin Islands,VGB,0,British Virgin Islands,VGB,British Virgin Is.,V.I. (Br.),VG,NA,U.K.,British Virgin Islands,3,24491,853.4,0,VG,VGB,92,VGB,-64.62140961284123,18.42300417805361,VGB,British Virgin Islands,South America,South America,Latin America and the Caribbean,Caribbean,Rest Central America,Rest of Central Am,Caribbean,ALM,Latin America and the Caribbean (LAM),Caribbean,28,Caribbean,other,SID,other
3,3,Admin-0 countries,United States of America,US1,1,2,Dependency,United States Virgin Islands,VIR,0,United States Virgin Islands,VIR,0,United States Virgin Islands,VIR,U.S. Virgin Is.,V.I. (U.S.),VI,Virgin Islands of the United States,U.S.A.,United States Virgin Islands,1,109825,1577,0,VI,VIR,850,VIR,-64.77161445164266,17.7412760147706,VIR,United States Virgin Islands,South America,South America,Latin America and the Caribbean,Caribbean,Rest Central America,Rest of Central Am,Caribbean,OECD90,North America (NAM),Caribbean,28,Caribbean,other,SID,other
3,3,Admin-0 countries,France,FR1,1,2,Dependency,Wallis and Futuna,WLF,0,Wallis and Futuna,WLF,0,Wallis and Futuna,WLF,Wallis and Futuna,Wlf.,WF,Territory of the Wallis and Futuna Islands,Fr.,Wallis and Futuna,11,15289,60,0,WF,WLF,876,WLF,-178.12956401757782,-14.285729183616892,WLF,Wallis and Futuna,Australia,Australia,Asia and the Pacific,South Pacific,Oceania,Oceania,Australasia,ASIA,Other Pacific Asia (PAS),Oceania,29,Rest of Australasia,other,other,other
1,1,Admin-0 countries,Samoa,WSM,0,2,Sovereign country,Samoa,WSM,0,Samoa,WSM,0,Samoa,WSM,Samoa,Samoa,WS,Independent State of Samoa,NA,Samoa,6,219998,1049,0,WS,WSM,882,WSM,-172.4374258758865,-13.630792884681899,WSM,Samoa,Australia,Australia,Asia and the Pacific,South Pacific,Oceania,Oceania,Australasia,ASIA,Other Pacific Asia (PAS),Oceania,29,Rest of Australasia,LDC,SID,other
5,5,Adm-0 country,Tuvalu,TUV,0,2,Sovereign country,Tuvalu,TUV,0,Tuvalu,TUV,0,Tuvalu,TUV,Tuvalu,Tuv.,TV,NA,NA,Tuvalu,5,12373,14.94,0,TV,TUV,798,TUV,179.205140647693,-8.504031626313033,TUV,Tuvalu,Australia,Australia,Asia and the Pacific,South Pacific,Oceania,Oceania,Australasia,ASIA,Other Pacific Asia (PAS),Oceania,29,Rest of Australasia,LDC,SID,other
1,1,Admin-0 countries,France,FR1,0,2,Dependency,French Guiana,GUF,0,French Guiana,GUF,0,French Guiana,GUF,French Guiana,Fr. Gui.,F,French Guiana,Fr.,French Guiana,11,236250,NA,FG,GF,GUF,250,GUF,-53.17471,3.833223,NA,NA,NA,NA,NA,NA,NA,NA,NA,NA,NA,NA,NA,NA,NA,NA,NA
